title,address,city,state,zipcode,phone,type
COST PLUS #235,2534 BERRY HILL ROAD,MONTGOMERY,AL,36117,0,Package
COST PLUS WORLD MARKET #264,10200 EASTERN SHORE BLVD. SUITE 160,SPANISH FORT,AL,36527,0,Package
DIXIE FISH COMPANY,101-RESOURCE DRIVE,BIRMINGHAM,AL,35244,0,Package
LIQUOR EXPRESS,1802 UNIVERSITY DRIVE,HUNTSVILLE,AL,35801,0,Package
COST PLUS WORLD MARKET #222,4381-CREEKSIDE AVENUE,HOOVER,AL,35244,0,Package
THE FRESH MARKET #000083,4800-WHITESBURG DRIVE,HUNTSVILLE,AL,35802,0,Package
COST PLUS WORLD MARKET #175,4608-HIGHWAY 280,BIRMINGHAM,AL,35242,0,Package
CRAZY CAJUN,125 INVERNESS PLAZA,HOOVER,AL,35242,0,Package
THE FRESH MARKET #151,6900-US HIGHWAY 90  SUITE 2,DAPHNE,AL,36526,0,Package
MELLOW MUSHROOM,1110-NO.BOLL WEEVIL CIRCLE-STE A&B,ENTERPRISE,AL,36330,0,Package
O. K. BICYCLE SHOP,661 DAUPHIN STREET,MOBILE,AL,36602,0,Package
PUBLIX #1228,2451 COBBS FORD RD,PRATTVILLE,AL,36066,0,Package
ALEXANDRIA PACKAGE STORE,81-BIG VALLEY DRIVE  SUITE D,ALEXANDRIA,AL,36250,0,Package
AAFES MINI MALL  BLDG.6600,DUST OFF & ANDREWS ROAD,FT. RUCKER,AL,36362,0,Package
PUBLIX #1391,2040-MARTIN STREET  PELL CITY,PELL CITY,AL,35128,0,Package
COUNTY LINE C STORE,315-CANE CREEK ROAD,WARRIOR,AL,35180,0,Package
LEGENDS SPORTS CAFE LLC,207 E BOARD STREET,EUFAULA,AL,36027,0,Package
VOWELL'S FRESH MARKET,625-HIGHWAY 80 EAST  DEMOPOLIS,DEMOPOLIS,AL,36732,0,Package
MOODY LIQUORS,2616-MOODY PARKWAY  MOODY,MOODY,AL,35004,0,Package
COTTAGE HILL PACKAGE STORE,6376 COTTAGE HILL ROAD,MOBILE,AL,36695,0,Package
DEEP COUNTRY GROCERY,3118-HIGHWAY 52 WEST,PELHAM,AL,35124,0,Package
SATSUMA CHEVRON,6105-HIGHWAY 43,SATSUMA,AL,36525,0,Package
TARGET # 1376,790 SCHILLINGER ROAD,MOBILE,AL,36608,0,Package
TIM'S CAJUN KITCHEN,114-JORDAN LANE,HUNTSVILLE,AL,35810,0,Package
BRUNO'S # 84,2001 MCFARLAND BLVD,TUSCALOOSA,AL,35401,0,Package
PUBLIX #1026,7700 VAUGHN ROAD,MONTGOMERY,AL,36116,0,Package
COST PLUS #322,2546 ENTERPRISE DRIVE,OPELIKA,AL,36801,0,Package
HOP CITY/OFF,2924-3RD AVENUE SOUTH  BIRMINGHAM,BIRMINGHAM,AL,35233,0,Package
PUBLIX #  75,4851-RICE MINE ROAD  SUITE 200,TUSCALOOSA,AL,35401,0,Package
BRUNO'S #310,306 SO.UNIVERSITY BLVD.,MOBILE,AL,36609,0,Package
PLEASURE IS ALL WINE,2152-PELHAM PARKWAY,PELHAM,AL,35124,0,Package
S & S SPIRITS,542-WEST MAIN STREET  GLENCOE,ETOWAH CO.,AL,35903,0,Package
THE BIG EASY RESTAURANT AND SEAFOOD,800-HIGHWAY 72 WEST  SUITE E,ATHENS,AL,35611,0,Package
WINDMILL 67,HIGHWAY 67 AT BURNINGTREE RD,DECATUR,AL,35602,0,Package
FOOD WORLD #337,112 SARALAND LOOP,SARALAND,AL,36571,0,Package
MELLOW MUSHROOM PIZZA,2641 LEGENDS PARKWAY,PRATTVILLE,AL,36066,0,Package
MCLEODS PUBLICK HOUSE,5630-WEST MAIN STREET SUITE 8,DOTHAN,AL,36305,0,Package
MARK'S MART # 2,1022 CO. RD. 44,SELMA,AL,36701,0,Package
PIKE ROAD BUTCHER BLOCK,2559-VAUGHAN ROAD,PIKE ROAD,AL,36064,0,Package
BASKET OF CHEER,1230 WESTGATE PKWY SUITE 8,DOTHAN,AL,36303,0,Package
KITCHEN ON GEORGE,351A GEORGE STREET,MOBILE,AL,36604,0,Package
PUBLIX #1207,1584-MONTGOMERY HIGHWAY  HOOVER,HOOVER,AL,35216,0,Package
MELLOW MUSHROOM,33-INDUSTRIAL DRIVE,OXFORD,AL,36203,0,Package
ALL IN ONE EXXON,US 280 & WASHINGTON STREET,KELLYTON,AL,35089,0,Package
WERNER TRADING,1115-4TH STREET SOUTHEAST,CULLMAN,AL,35055,0,Package
PETE'S PACKAGE STORE TOO  INC,1402 SOUTH BRUNDIDGE STREET,TROY,AL,36081,0,Package
NEW YORK BUTCHER SHOPPE,3158-HEIGHTS VILLAGE  BIRMINGHAM,BIRMINGHAM,AL,35243,0,Package
KENDRICK SPIRITS,3376-CLOVERDALE ROAD  FLORENCE,FLORENCE,AL,35633,0,Package
BRUNO'S #309,6729 SPANISH FORT BLVD,SPANISH FORT,AL,36527,0,Package
BRUNO'S #323,4350 OLD SHELL RD.,MOBILE,AL,36608,0,Package
CITGO FUEL EXPRESS,2064-B U.S. HIGHWAY 72 EAST,HUNTSVILLE,AL,35811,0,Package
CRESTWOOD COFFEE COMPANY,5512-CRESTWOOD BOULEVARD BHAM,BIRMINGHAM,AL,35212,0,Package
BROWN & CO BEVERAGES,5285-ALABAMA HIGHWAY 157 NORTHWEST,CULLMAN,AL,35058,0,Package
CAINS GROCERY #2,1200 S. MCKENZIE STREET,FOLEY,AL,36535,0,Package
THE FRESH MARKET,4700-U.S. HIGHWAY 280  SUITE 6,HOOVER,AL,35242,0,Package
BOTTLE SHOP,HIGHWAY 119,ALABASTER,AL,35007,0,Package
BUCKS PIZZA,251-BUCK CREEK CIRCLE  ALABASTER,ALABASTER,AL,35007,0,Package
THE INN AT MADISON,9035-MADISON BOULEVARD,MADISON,AL,35758,0,Package
HIGHLAND PACKAGE STORE,2228-A HIGHLAND AVENUE SOUTH,BIRMINGHAM,AL,35205,0,Package
VULCAN BEVERAGE,409-UNIVERSITY BOULEVARD,BIRMINGHAM,AL,35205,0,Package
DARBY DRIVE PACKAGE,1820 DARBY DRIVE,FLORENCE,AL,35630,0,Package
LOST CAJUN,204 MAIN ST,FRISCO,CO,80443,0,Package
JAX FISH HOUSE,123 N COLLEGE AVE,FT COLLINS,CO,80524,9706822275,Package
MO' BETTA GUMBO,141 EAST 4TH STREET,LOVELAND,CO,80537,8179132096,Package
TIPSY'S,5869 S ALKIRE ST,LITTLETON,CO,80127,3035517000,Package
NO NO'S CAFE,3005 W COUNTYLINE RD,LITTLETON,CO,80129,3037388330,Package
WILBURS TOTAL BEVERAGE,2201 S COLLEGE AVE 108,FT COLLINS,CO,80525,9702268662,Package
DAVIDSONS LIQUOR,5555 BOATWORKS DRIVE,HIGHLANDS RANCH,CO,80126,3032240444,Package
BAYOU BOBS,1635 GLENARM,DENVER,CO,80202,3035736828,Package
LOST CAJUN- BRECK,411 S MAIN ST #4,BRECKENRIDGE,CO,80424,0,Package
APPLEJACK LIQUORS,3320 YOUNGFIELD,WHEATRIDGE,CO,80033,3032333331,Package
SQUARE GROUPER,304 E. HOPKINS AVENUE #1,ASPEN,CO,81611,0,Package
NORTON'S CATERING,955 HWY 3,DURANGO,CO,81301,9702444702,Package
ARGONAUT WINE & LIQUOR,700 E COLFAX,DENVER,CO,80203,3038317788,Package
EPIC BEER FESTIVAL,700 14TH ST,DENVER,CO,80202,0,Package
FISHERS LIQUOR BARN,2438 PATTERSON ROAD,GRAND JUNCTION,CO,81505,9702420999,Package
LIQUOR MART,1750 15TH ST,BOULDER,CO,80302,3034493374,Package
BIN 707 FOOD BAR,225 N 5TH ST STE 105,GRAND JUNCTION,CO,81501,9702434543,Package
COLORADO LIQUOR OUTLET,1615 BRIARGATE BLVD,COLO SPGS,CO,80920,7192669300,Package
SPRINGS LIQUOR OUTLET,6010 N. CAREFREE CIR.,COLO SPGS,CO,80922,7195735777,Package
SOUTH LOGAN LUCILLE'S,275 S. LOGAN ST.,DENVER,CO,80209,3032826258,Package
LOST CAJUN,56 EDWARDS VILLAGE BLV #112,EDWARDS,CO,81632,0,Package
HIGHLANDS WINE & LIQUOR,4650 W 38TH AVE # 100,DENVER,CO,80212,3033274972,Package
CHEER'S LIQUOR MART,1105 N CIRCLE DRIVE,COLO SPGS,CO,80909,7195742244,Package
DAVECO,16434 N. WASHINGTON ST,THORNTON,CO,80020,3039513823,Package
BUBBLES LIQUOR MART,675 GENOA WAY,CASTLE ROCK,CO,80104,3034688100,Package
INCREDIBLE WINE AND SPIRITS,8557A E. ARAPAHOE RD,GREENWOOD VILLAG,CO,80112,3034889463,Package
MOE'S ORIGINAL BBQ & BOWLING,3295 S. BROADWAY,ENGLEWOOD,CO,80110,3037810414,Package
SANTA FE SPIRITS,6023 S SANTA FE DR,LITTLETON,CO,80120,3037978181,Package
CLUBHAUS THE,106 STONE ST,MORRISON,CO,80465,3035709962,Package
MORGAN'S LIQUOR,1200 E EVANS,DENVER,CO,80210,3037776223,Package
LUKAS LIQUOR SUPERSTORE,8457 S YOSEMITE,LONE TREE,CO,80124,3037922288,Package
QUEEN LIQUORS,1744 W UINTAH DR,COLO SPGS,CO,80904,7194751744,Package
CHAMBERS WINES & LIQUORS,15260 E ILIFF AVE,AURORA,CO,80014,3037516935,Package
GREAT VINES LIQUOR,6140 S. GUNCLUB RD #J,AURORA,CO,80016,3036178800,Package
AMERICAN LIQUORS,1333 W ALAMEDA,DENVER,CO,80223,3037777837,Package
KART LIQUORS,1306 W EDISON ST,BRUSH,CO,80723,9708425572,Package
BANANA BELT LIQUORS,300 E US HWY 24 UNIT D,WOODLAND PARK,CO,80863,7196879757,Package
WESTSIDE LIQUOR INC,2209 W WILDCAT RES PKWY,HIGHLANDS RANCH,CO,80129,3033463400,Package
DIVINO,1240 S BROADWAY,DENVER,CO,80210,3037781800,Package
SOUTHERN HOSPITALITY,1433 17TH ST STE 150,DENVER,CO,80202,0,Package
MONDOVINO,3601 W 32ND AVE,DENVER,CO,80211,3034583858,Package
PARKER PAYLESS LIQUORS,9749 S. PARKER RD.,PARKER,CO,80134,3038413333,Package
BIG BEAR WINE AND LIQUOR,2037 S PUEBLO BLVD,PUEBLO,CO,81005,0,Package
BONNIE BRAE WINE & LIQUOR MART,785 S UNIVERSITY,DENVER,CO,80209,3037337261,Package
HIGHLINE CAFE AND SALOON,12779 HWY 24,HARTSEL,CO,80449,0,Package
TOWER LIQUORS,18611 E 48TH AVE,DENVER,CO,80249,3033711854,Package
LA VETA INN,103 E RYUS,LA VETA,CO,81055,7197423700,Package
HERITAGE LIQUOR STORE,7475 E ARAPAHOE RD,CENTENNIAL,CO,80112,3037708212,Package
FOOTHILLS LIQUOR,13079 W. ALAMEDA,LAKEWOOD,CO,80228,3037167525,Package
3 ROCK LIQUORS,6160 FIRESTONE BLVD #110,FIRESTONE,CO,80520,0,Package
VINELAND LIQUORS,8770 WADSWORTH BLVD #K,ARVADA,CO,80003,3034212411,Package
TOTAL BEVERAGE,770 EAST 104TH AVE,THORNTON,CO,80233,3032803800,Package
SPORTSMANS DISCOUNT LIQUOR,1817 MAIN STREET #201,LONGMONT,CO,80501,3037764060,Package
WEST SLOPE LIQ,1401 E MAIN ST,CORTEZ,CO,81321,9705657364,Package
LINCOLN'S ROADHOUSE,1201 SOUTH PEARL,DENVER,CO,80203,3037773700,Package
JAGS BAYOU LTD,919 GRAND AVE,GLENWOOD SPGS,CO,81602,9709451047,Package
A-1 LIQUOR,106 E. JEFFERSON AVE,HAYDEN,CO,81639,9702762040,Package
80 TWENTY WINES,415 N GREENWOOD STE C,PUEBLO,CO,81003,0,Package
ZIGGIES,4923 W. 38TH,DENVER,CO,80212,3038081903,Package
BROADWAY DISCOUNT LIQUORS,4615 S. BROADWAY,ENGLEWOOD,CO,80113,3037892999,Package
SUPER MARKET LIQUORS INC,1300 E MULBERRY,FT COLLINS,CO,80521,9702212428,Package
COLLEGE LIQUORS INC,2695 PATTERSON RD,GRAND JUNCTION,CO,81506,9702550670,Package
CLIFTON LIQUORS,3255 F ROAD,CLIFTON,CO,81520,9704346039,Package
WORLD BEVERAGE INC,3665 N GARFIELD,LOVELAND,CO,80538,9706692999,Package
WILLOW RUN LIQUORS,12860 N. ZUNI STE 100,WESTMINSTER,CO,80234,3034515335,Package
GOLD HILL LIQUOR,797 GOLD HILL SQ. SOU.,WOODLAND PARK,CO,80866,7196879149,Package
3-S LIQUOR,8031 WADSWORTH D6,ARVADA,CO,80003,3034223001,Package
CENTENNIAL SQUARE LIQUOR,1600 HOVER ST,LONGMONT,CO,80501,3036519395,Package
CITY LIQUOR STORE,708 MAIN ST.,SPRINGFIELD,CO,81073,7195236636,Package
HORIZON PARK LIQUOR,2255 N. MAIN #109&110,LONGMONT,CO,80501,3036829198,Package
LADY FALCONBURGH'S BARLEY EXCH,640 MAIN AVE,DURANGO,CO,81301,9703829664,Package
COCONUTS,1153 BERGEN PKWY,EVERGREEN,CO,80439,3036700800,Package
LUCILES OF LITTLETON,2852 W BOWLES,LITTLETON,CO,80123,0,Package
CORNERSTAR LIQUORS,15405 E BRIARWOOD CIR,AURORA,CO,80016,3033609463,Package
BELLEVIEW SQUARE WINE & SPIRIT,4920 SO. YOSEMITE,GREENWOOD VILLAG,CO,80111,3037701200,Package
HIGH NOON LIQUORS,5380 MISSISSIPPI,LAKEWOOD,CO,80226,3039357622,Package
UNION WINE & SPIRITS,295 SO UNION BLVD,LAKEWOOD,CO,80228,3039892184,Package
DENVER LIQUOR GALAXY,8968 E HAMPDEN AVE,DENVER,CO,80231,0,Package
WEBER ST LIQUORS INC,712 N WEBER ST,COLO SPGS,CO,80903,7194759533,Package
TELLURIDE CONFERENCE CENTER,580 MTN VILLAGE BLVD,MOUNTAIN VILLAGE,CO,81435,9703696400,Package
LIQUOR WORLD,695 CAMINO DEL RIO,DURANGO,CO,81301,9702590144,Package
ANTLERS CAFE AND BAR,46 MOFFAT AVE,YAMPA,CO,80483,0,Package
MONUMENT LIQUOR MART,15756 JACKSON CRK PKWY,MONUMENT,CO,80132,7194873301,Package
HIGHLANDS WINE SELLER,6668 TIMBERLINE RD,HIGHLANDS RANCH,CO,80126,7208899463,Package
DILLON RIDGE LIQUORS,294 US HWY 6 UNIT B,DILLON,CO,80435,9704680298,Package
TURNBERRY LIQUOR,12302 E 104TH PL UNIT 104,COMMERCE CITY,CO,80022,3032894045,Package
OUTBACK LIQUORS,113 S. ELIZABETH ST,ELIZABETH,CO,80107,3036464449,Package
LIQUOR KABINET,3035 W PROSPECT RD,FORT COLLINS,CO,80526,0,Package
SMOKY HILL VILLAGE LIQUORS,19731 E SMOKY HILL,AURORA,CO,80015,3036908600,Package
FT.COLLINS WAREHOUSE LIQ.,4700 BOARDWALK,FT COLLINS,CO,80525,9702251300,Package
SWEETWATER LIQUORS,701 CHAMBERS AVE,EAGLE,CO,81631,9703281608,Package
PARTY SPIRITS,348 W FIRST,SALIDA,CO,81201,7195398636,Package
COUNTRY CLUB LIQUORS,683 HORIZON DR # 105,GRAND JUNCTION,CO,81506,9702457333,Package
STAR LIQUORS,1485 FLORIDA RD C-#100,DURANGO,CO,81301,9702472258,Package
AMORE VINO,10111 INVERNESS MAIN ST # G,ENGLEWOOD,CO,80112,7202195096,Package
DRY CREEK DISCOUNT LIQUORS,7500 S UNIVERSITY BLVD,CENTENNIAL,CO,80122,3032209399,Package
MOES ORIGINAL BBQ,530 BROADWAY,DENVER,CO,80203,3036301980,Package
RAMPART LIQUORS,7635 N. UNION BLVD.,COLO SPGS,CO,80920,7195990715,Package
UNION JACK LIQUORS,1160 E SOUTH BOULDER R,LOUISVILLE,CO,80027,3036667616,Package
TRE (THE BAYOU),109 DANBURY RD,RIDGEFIELD,CT,068770000,2038945276,Package
CONNECTICUT FINE WINE & SPIRIT,380 MAIN AVE,NORWALK,CT,068511553,0,Package
BLACK-EYED SALLY'S BBQ,350 ASYLUM STREET,HARTFORD,CT,06103,8602787427,Package
TONY'S PACKAGE,446 BIRGE PARK RD,HARWINTON,CT,067910000,8604851490,Package
FAIRGROUNDS WINE & SPIRITS,19 SUGAR HOLLOW ROAD,DANBURY,CT,068100000,2037922152,Package
STATELINE WINE & SPIRITS,PO BOX 695,NORTH CANAAN,CT,060180000,8608247295,Package
CREATIVE COOKING,1835 BOSTON POST/P.O. 126,WESTBROOK,CT,06498,8603997872,Package
GOOD SPIRITS PKG STORE,340 NORTH ELM STREET,TORRINGTON,CT,067900000,8604960726,Package
RED HOUSE,158 MAIN STREET,DEEP RIVER,CT,06417,8605262600,Package
FRESH MARKET OF CT,315 WEST MAIN STREET,AVON,CT,06001,8606770756,Package
VIRGIL'S REAL BBQ,1 MOHEGAN SUN BLVD STE H1,UNCASVILLE,CT,06382,8608620000,Package
VOODOO GRILL,12 WATER STREET,MYSTIC,CT,06355,8605724422,Package
CRAZY BRUCE'S WEST HTFD,176 H NEWINGTON ROAD,WEST HARTFORD,CT,06110,8602332117,Package
CORK N BARREL,266 S MAIN ST,NEWTOWN,CT,064700000,2032707600,Package
LOU'S WESTBROOK PACKAGE,1271 BOSTON POST/BOX 135,WESTBROOK,CT,06498,8603991198,Package
VILLA SPIRIT SHOPPE,591 MIDDLE TURNPIKE,STORRS,CT,06268,8604296421,Package
WORLDWIDE WINE & SPIRITS,480 QUEEN STREET,SOUTHINGTON,CT,06489,8602765801,Package
LIQUOR DEPOT,687 W. MAIN ST  COR-WEST,NEW BRITAIN,CT,06051,8602237140,Package
THE CORK FINE WINE & SPIRITS,1597 EAST MAIN ST.,TORRINGTON,CT,067900000,8604960400,Package
BOTTLE STOP WINE & SPIRITS,5 QUEEN STREET,NEWTOWN,CT,064700000,2033649711,Package
WATERFORD WINE & SPIRITS,825-829 HARTFORD TURNPIKE,WATERFORD,CT,06385,8604379740,Package
BANC HOUSE,16 RIVER ST,NORWALK,CT,068500000,2039845818,Package
PLAZA PACKAGE STORE,568 PROVIDENCE ROAD,BROOKLYN,CT,06234,8607745616,Package
TOTAL WINE & MORE N.TOWNE,NORTHTOWNE SHPG.CTR.,CLAYMONT,DE,19703,3027921322,Package
PO'BOYS CREOLE & FR CATCH,900 PALMER STREET  UNIT B,MILTON,DE,19968,13026840890,Package
OCEAN WINE & SPIRITS,19724 COASTAL HIGHWAY,REHOBOTH,DE,19971,13022277700,Package
NORA LEES FRENCH QTR BSTR,124 DELAWARE STREET,NEW CASTLE,DE,19720,0,Package
TOTAL WINE & MORE MILLTWN,1325 MCKENNANS CH.RD,WILMINGTON,DE,19808,3029945510,Package
MIKIMOTO'S SUSHI BAR,1212 WASHINGTON STREET,WILMINGTON,DE,19801,13026568638,Package
MOJO MAIN,270-272 EAST MAIN STREET,NEWARK,DE,19711,3023696656,Package
COASTAL WINES & SPRTS,12141 COASTAL HWY,MILTON,DE,19968,3026841135,Package
PECO INC.,522 PHILADELPHIA PK.,WILMINGTON,DE,19809,3027640377,Package
LIQUOR DEPOT,1010 FORREST AVE SUIT 114,DOVER,DE,19904,13027363050,Package
EMPLOYEES DOVER,883 HORSEPOND RD,DOVER,DE,19901,3026555511,Package
BLUE PARROT BAR & GRL,1932-34-36 WEST 6TH ST.,WILMINGTON,DE,19805,13026558990,Package
MILTON LIQUORS,112 BROADKILL RD,MILTON,DE,19968,13026843313,Package
MOJO 13,1706 PHILADELPHIA PIKE,WILMINGTON,DE,19809,7985798,Package
BEACH LIQUOR,RT.1 JEFFERSON BRIDGE RD.,BETHANY BEACH,DE,19930,13025397400,Package
ABC LIQUORS,FOX RUN SHOPPING CTR,BEAR,DE,19701,3028369463,Package
SAINT GEORGE'S COUNTRY ST,ONE DELAWARE STREET,SAINT GEORGES,DE,19733,3028368202,Package
THE RIGHT BOTTLE,699 JIMMY DRIVE SUITE 2-5,SMYRNA,DE,19977,13026536131,Package
STAR FISH COMPANY-12580,12306 46TH AV W,CORTEZ,FL,34215,9417941243,Package
TOTAL WINE & MORE #901-10636,1720 N DALE MABRY HWY,TAMPA,FL,33607,8133509601,Package
CAJUN CAFE ON BAYOU-04474,8101 PARK BLVD,PINELLAS PARK,FL,33781,7275466732,Package
FLIP FLOPS DOCKSIDE EATERY,3051 NE 32 AVE,FT LAUDERDALE,FL,33308,9545671672,Package
TOTAL WINE & MORE #902-42040,13705 S TAMIAMI TRAIL,FORT MYERS,FL,33912,2394320510,Package
TOTAL WINE & MORE # 907,4413 TOWN CENTER PKWY 300,JACKSONVILLE,FL,32246,19049981740,Package
TOTAL WINE & MORE #0909,2712 E. COLONIAL DR,ORLANDO,FL,32803,4078946553,Package
SHUCK N DIVE,650 NORTH FEDERAL HIGHWAY,FORT LAUDERDALE,FL,33304,9544620088,Package
WORLD MARKET #325-90498,8072 MEDITERRANEAN DR,ESTERO,FL,33928,2393901424,Package
THE FRESH MARKET,1650 AIRPORT BLVD SUITE 400,PENSACOLA,FL,32504,0,Package
TOTAL WINE & MORE #914-12880,8539 COOPER CREEK BLVD,UNIVERSITY PARK,FL,34201,9413517895,Package
SEMINOLE INDIAN CASINO-09892,5223 N ORIENT RD,TAMPA,FL,33610,8133939947,Package
GUMBO YA YAS,14333 BEACH BLVD #101,JACKSONVILLE,FL,32250,9042230202,Package
COCONUT JACKS-43045,5370 BONITA BEACH ROAD,BONITA SPRINGS,FL,34134,2396767777,Package
FRESH MARKET-54543,526-A 21ST STREET,VERO BEACH,FL,32960,7727942216,Package
TOTAL WINE & MORE #903,11221 LEGACY AVE,PALM BEACH GDNS,FL,33410,5616227340,Package
TOTAL WINE & MORE #910-05106,2528 STATE RD 580,CLEARWATER,FL,33761,7274311010,Package
LOBSTER LADY SEAFOOD- 44943,1715 CAPE CORAL PARKWAY W #2-3,CAPE CORAL,FL,33914,2394710136,Package
WORLD MARKET #244-43533,13741 S TAMIAMI TRAIL,FORT MYERS,FL,33912,2392269711,Package
ST MICHEALS PUB,513 W GAINES ST,TALLAHASSEE,FL,32301,8504430397,Package
HOT N JUICY CRAWFISH,7572 W SAND LAKE RD,ORLANDO,FL,32819,4073704655,Package
TOTAL WINE & MORE #913-07092,4880 PARK ST,ST PETERSBURG,FL,33709,7275446018,Package
WORLD MARKET #329-44129,2415 TARPON BAY BLVD UNIT3,NAPLES,FL,34119,2395661239,Package
TOTAL WINE & MORE #0920,4625 MILLENIA PLAZA WAY,ORLANDO,FL,32839,4073526330,Package
SAVE-A-LOT-44233,61 LEE ST UNIT 7,LABELLE,FL,33935,8636758080,Package
BONEFISH GRILL-00852,10750 STATE ROAD 54,NEW PORT RICHEY,FL,34655,7273727540,Package
CRISPY'S BEER & WINE BAR,604-608 BARNES BLVD,ROCKLEDGE,FL,32955,3218064112,Package
RED RABBIT,130 HWY 98,APALACHICOLA,FL,32320,8506538768,Package
CAJUN SPECIALTY MEATS,690 E. HEINBERG STREET,PENSACOLA,FL,32502,8504699400,Package
LEISURE CLUB,126 PALAFOX ST,PENSACOLA,FL,32502,0,Package
TAPS RESTAURANT BAR- 38251,9108 STRADA PLACE,NAPLES,FL,34108,2395985000,Package
CAROUSEL (THE),19440 FRONT BEACH RD,LAGUNA BEACH,FL,32413,8502342219,Package
HUB STACEY'S,312 E GOVERNMENT ST,PENSACOLA,FL,32501,8504691001,Package
YELLOW GREEN FARMER MARKET,1940 NORTH 30TH RD,HOLLYWOOD,FL,33021,9545627528,Package
SECOND STREET SPEAKEASY,21 SW 2ND STREET,GAINESVILLE,FL,32601,3522717569,Package
SHINE CAFE,337 N. SHINE AVE,ORLANDO,FL,32803,3212780409,Package
NADIYAS CABARET-06731,8804 66TH ST N,PINELLAS PARK,FL,33782,7275636298,Package
SHEPS BEER EMPOURIUM-05981,2001 4TH ST N,ST PETERSBURG,FL,33704,7278236565,Package
ANNA MARIA GENERAL STORE-12004,307 PINE AVE,ANNA MARIA,FL,34216,9413551421,Package
TOTAL WINE & MORE #918,8851 SW 136 ST,MIAMI,FL,33176,0,Package
BEAN AND GRAPE CAFE,1133 1ST STREET SOUTH,WINTER HAVEN,FL,33880,8632998140,Package
WORLD OF BEER-01258,2081 COLLIER PKWY,LAND O LAKES,FL,34639,8139489400,Package
CHOWDER TEDS INC,5215 HECKSCHER DR,JACKSONVILLE,FL,322263051,9047146900,Package
TOTAL WINE & MORE #905,5050 TOWN CENTER CIRCL,BOCA RATON,FL,33432,5613911281,Package
PCI/SOUTH FLORIDA FAIRGROUNDS,9067 SOUTHERN BLVD,WEST PALM BEACH,FL,33411,5615027505,Package
TOTAL WINE & MORE #904,1906 CORDOVA RD,FT LAUDERDALE,FL,33316,9548289463,Package
HOLLYWOOD VINE,2035 HARRISON ST,HOLLYWOOD,FL,33020,9549222910,Package
COCK & BULL PUB (THE)-16140,975 CATTLEMAN RD,SARASOTA,FL,34232,9416852686,Package
PP COBB GENERAL STORE-53278,100 AVE A STE 1C & 1D,FORT PIERCE,FL,34950,77246690227726200000,Package
FOREMOST LIQUORS & WINES,2640 BLANDING BLVD #207B,MIDDLEBURG,FL,32068,9042919400,Package
CAPPYS PIZZA SEMINOLE HEI-10756,4910 N FLORIDA AVE,TAMPA,FL,33603,8132381516,Package
WORLD OF BEER & BLEND,200 S PALAFOX ST,PENSACOLA,FL,32502,8507233784,Package
DAT CAJUN PLACE CAFE,8501 THOMAS DR,PANAMA CITY BCH,FL,32408,8508902663,Package
LUEKENS BIGTOWN LIQUORS-07224,3163 CURLEW RD #6,OLDSMAR,FL,33684,7277891789,Package
FANCYS SOUTHERN CAFE-44291,8890 SALROSE LANE UNIT 101,FORT MYERS,FL,33912,2395612988,Package
MELBOURNE BEACH SUPER MARKET,302 OCEAN AVE,MELBOURNE BEACH,FL,32901,3216765225,Package
V SEAGROVE RESTAURANT,2743 HWY 30A,SANTA ROSA BEACH,FL,32459,0,Package
TOTAL WINE & MORE #908-44053,5048 AIRPORT PULLING RD,NAPLES,FL,34105,2396494979,Package
BROUDY LIQUORS #2,516 W GEOFFREY ST,SAINT AUGUSTINE,FL,32085,9044172090,Package
TOTAL WINE & MORE #922,11960 MILLS DRIVE,MIAMI,FL,33183,0,Package
TIR NA NOG *****,612 E INTL SDWY BLVD,DAYTONA BEACH,FL,32118,3862528662,Package
BIG PINK,157 COLLINS AVE,MIAMI BEACH,FL,33139,3055324700,Package
WINE WORLD OUTLET PENSACOLA,5010 BAYOU BOULEVARD  STE 103,PENSACOLA,FL,32503,8504763890,Package
SHORES FESTHAUSE (THE),2136 S ATLANTIC AVE,DAYTONA BCH SHRS,FL,32118,3862552981,Package
A CHEFS COOKING STUDIO INC,145 HILDEN RD,PONTE VEDRA BCH,FL,32081,9048271350,Package
BREWS BROTHERS GRILL & PUB,847 N. NAVY BOULEVARD,PENSACOLA,FL,32507,8504562537,Package
ABC LIQUORS #138-00036,1845 BRUCE B DOWNS BLVD,WESLEY CHAPEL,FL,33544,7279346622,Package
EUROPEAN STREET CAFE,992 BEACH BLVD,JAXVILLE BEACH,FL,32250,19042493001,Package
A F B BEACH SNACK BAR-08076,MACDILL A F B BLDG 692,TAMPA,FL,33608,8138283805,Package
MARKET SQUARE-BRADFORD*****,6800 A-1 THOMASVILLE RD,TALLAHASSEE,FL,32312,8509069636,Package
FOUR WINDS FINE FOOD MKT,6895-G N. 9TH AVENUE,PENSACOLA,FL,32504,8504772808,Package
TOTAL WINE & MORE #916-52053,2550 NW FEDERAL HWY,STUART,FL,34994,7726921530,Package
FRONT PORCH (THE),1458 OCEAN DR,MIAMI BEACH,FL,33139,3057636027,Package
TOTAL WINE & MORE #906,850 N CONGRESS AVE,BOYNTON BCH,FL,33426,5617315411,Package
TOTAL WINE & MORE #915,15980 PINES BLVD,PEMBROKE PINES,FL,33027,9544375557,Package
OLD HICKORY WHISKEY BAR,123 S PALAFOX PLACE,PENSACOLA,FL,32502,0,Package
GARCIGA ROXANNA,441 SW 12TH AVENUE,DEERFIELD BEACH,FL,33442,0,Package
TOTAL WINE & MORE #919,801 S UNIVERSITY DRIVE,PLANTATION,FL,33324,0,Package
A LA PROVENCE,1415 TIMBERLANE RD,TALLAHASSEE,FL,32312,8503226455,Package
ST PETE MARRIOTT HOTEL PP-05783,12600 ROOSEVELT BLVD,ST PETERSBURG,FL,33716,7274561346,Package
ABC LIQUORS #077-04080,1603 N MISSOURI AVE,LARGO,FL,33540,7275814642,Package
CAPPYS PIZZA-11455,6260 WINTHROP TOWN CENTER AVE,RIVERVIEW,FL,33578,8136624811,Package
ABC LIQUORS #128-00035,14248 US 19 N,HUDSON,FL,34667,7278693003,Package
TOTAL WINE & MORE #912,14770 BISCAYNE BLVD,NO MIAMI BEACH,FL,33181,3053543270,Package
MARKET SQUARE-LAKE JACK***,3511 N MONROE,TALLAHASSEE,FL,32303,8505628297,Package
BOTTLE RACK-11109,5725 GUNN HWY,TAMPA,FL,33635,8139689463,Package
WORLD OF BEER,9700 DEERLAKE COURT #1,JACKSONVILLE,FL,32246,9045515929,Package
ESPANA RESTAURANT  TAPAS,22 4TH STREET SOUTH,FERNANDINA BEACH,FL,32034,9042617700,Package
SHARKYS,401 BISCAYNE BLVD,MIAMI,FL,33132,3055773333,Package
SUNSET LIQUORS,1350 HIGHWAY 98 WEST,MARY ESTHER,FL,32569,0,Package
ALOHA WINE AND LIQUOR (ON-PREM,649 PENSACOLA BEACH BOULEVARD,PENSACOLA BEACH,FL,32561,8504793750,Package
TC FRONT PORCH,8558 NAVARRE PKWY,NAVARRE BEACH,FL,32566,8502596778,Package
TOP SHELF SPIRITS AND CIGARS,1419 OHIO AVENUE,LYNN HAVEN,FL,32444,0,Package
MALLARDIS TUSCAN GRILL,2282 WESTON RD,WESTON,FL,33326,9548545087,Package
BREAK BEACH BAR (THE),65 VIA DELUNA DRIVE,PENSACOLA BCH,FL,32561,9320864,Package
DIRTY SHAME-10780,1927 E 7TH AVE,TAMPA,FL,33605,8134539048,Package
HEILWELL  MADELYN,441 SW 12TH AVE,DEERFIELD BEACH,FL,33442,3053603988,Package
SEVILLE QUARTERS,130 E. GOVERNMENT ST.,PENSACOLA,FL,32501,8504346211,Package
MY MARKET AND DELI,229 SW 17 ST,FT LAUDERDALE,FL,33315,9547645253,Package
ABC LIQUORS #035-04075,3535 4TH ST N,ST PETERSBURG,FL,33704,7278944875,Package
TAPS WINE & BEER MERCHANTS-10993,777 N ASHLEY DR #A,TAMPA,FL,33602,9548162777,Package
WORD OF MOUTH LIMITED-17012,711 S OSPREY AVE SUITE 3,SARASOTA,FL,34236,9413651800,Package
BACCHUS VINO ETCETERA,692 W. MONTROSE #D,CLERMONT,FL,34711,3523949805,Package
PARADISE LIQUORS,4469 MOBILE HWY  SUITE F,PENSACOLA,FL,32506,8503327052,Package
CAPPYS PIZZA ST PETERSBURG-07116,2900 1ST AVE N,ST PETERSBURG,FL,33713,7273213020,Package
TAPS WINE & BEER EATERY,480 N ORLANDO AVE #130,WINTER PARK,FL,32789,4076775000,Package
MR BONE'S BAR-B-Q-12422,3007 GULF DRIVE,HOLMES BEACH,FL,34217,9417786614,Package
KING LIQUORS,10700 SW 113 PL,MIAMI,FL,33176,3052797043,Package
ISLAND HOUSE,1129 FLEMING ST,KEY WEST,FL,33040,3052946284,Package
FEATHER SOUND RALLY-05796,3400 ULMERTON RD,CLEARWATER,FL,34622,7275610043,Package
WINE WORLD OUTLET #2,99 EGLIN PKWY SUITE 39,FT WALTON BEACH,FL,32548,8506642546,Package
SAGE BISTRO,2000 HARRISON ST,HOLLYWOOD,FL,33020,9543919466,Package
GRAPEVINE FINE WINE&SPIRITS II,4738 S. FLORIDA AVE.,LAKELAND,FL,33813,8636482002,Package
COLORADO FONDUE COMPANY,1016 E SEMORAN BLVD,CASSELBERRY,FL,32707,4077678232,Package
CORNER STORE,250 SOUTHERN BLVD,WEST PALM BEACH,FL,33405,5618322452,Package
RIVERSIDE MARKET,608 SW 12TH AVE,FT LAUDERDALE,FL,33312,9547731681,Package
CAPTAINS LIQUOR-30180,2415 TAMIAMI TRAIL,PORT CHARLOTTE,FL,33952,9417801754,Package
BAMBOOZE FINE WINE & LIQUOR,8084 N. DAVIS HWY.,PENSACOLA,FL,32514,8504741944,Package
WINE STUDIO-11611,4106 HENDERSON BLVD,TAMPA,FL,33629,8133748866,Package
BEER STOP,1350 E TENNESSEE ST,TALLAHASSEE,FL,32308,8508770291,Package
DUCK TAVERN (THE),5901-03 N FEDERAL HWY,BOCA RATON,FL,33431,9549988288,Package
TEXACO/SHARDA INC OF LAKELAND,1605 E EDGEWOOD DR,LAKELAND,FL,33803,8636822065,Package
SPIRITS & GRAPES (WINE),3725 STERLING POINT DR,GULF BREEZE,FL,32563,8503847030,Package
ATTICUS BAR,325 WEST FORSYTH STREET,JACKSONVILLE,FL,32202,9046163995,Package
MELLOW MUSHROOM,5175 BAYOU BLVD,PENSACOLA,FL,32503,0,Package
ALPINE LIQUORS-08139,7501 NEBRASKA AVE,TAMPA,FL,33604,8132393595,Package
HIGHLAND FOOD MART,3501 CLEVELAND HEIGHTS,LAKELAND,FL,338034901,8636481681,Package
BLACK DOG BAR (USE 480737),360 DOCK STREET,CEDAR KEY,FL,32625,3523250050,Package
TOTAL WINE & MORE #917,960 S HWY 7,VILLAGE OF WELLI,FL,33414,5617959229,Package
CROWN WINE & SPIRITS #85-53468,1481 ST LUCIE WEST BLVD,PORT ST LUCIE,FL,34986,7723232203,Package
NORMANS LIQUOR & FINE WINE-16413,5200 CLARK ROAD,SARASOTA,FL,34238,9419269421,Package
WORLD OF BEER-17221,8217 TOURIST CENTER DR,SARASOTA,FL,34201,9413131379,Package
COUNTRY MARKET FOODS #7705,2901 W HWY 98,PANAMA CITY,FL,36301,8507854841,Package
LIBRARY AT MARKET STREET (THE),112 SOUTHWEST 1ST AVE,GAINESVILLE,FL,32601,9176908191,Package
BREAKAGE-WHSE-NITE,4901 SAVARESE CIRCLE,TAMPA,FL,,0,Package
DISCOUNT LIQUORS-90530,3405 TAMIAMI TRAIL,PUNTA GORDA,FL,33950,9416375803,Package
HOUSE OF BEERS,13526 VILLAGE PARK,ORLANDO,FL,32837,9418221452,Package
MIKES GALLEY,2514 SOUTH ATLANTIC AVE,DAYTONA BEACH,FL,32118,3867562020,Package
SAMPLES ANDY HARMON,6256 N 'W' STREET,PENSACOLA,FL,32522,0,Package
ABC LIQUORS #148-40002,2311 US HWY 27 N,SEBRING,FL,33870,8634711506,Package
PIZZERIA OCEANO,201 EAST OCEAN AVE,LANTANA,FL,33462,5614295550,Package
JOE PETERS-DR0D1,2040 PARK 82 DRIVE,FORT MYERS,FL,33905,0,Package
ENOTECA,112 E SELTICE WAY STE C,POST FALLS,ID,83854,2084579885,Package
DAANEN'S DELI,8049 N WAYNE DRIVE,HAYDEN LAKE,ID,83835,2087727371,Package
Bub City,435-37 N Clark St,Chicago,IL,606540000,7035979974,Package
Mojo's,510 Lockport,Plainfield,IL,605440000,8152302790,Package
Heaven On Seven On Rush,600 N Michigan Ave,Chicago,IL,606110000,3122807774,Package
Superior Beverage,1070 Orchard Rd,Montgomery,IL,605380000,6308968668,Package
Jerry's Sandwiches-Andersonville,5419 N Clark St,Chicago,IL,606400000,3129254631,Package
The Berkshire Restaurant,15 E Ohio St,Chicago,IL,606110000,7734895050,Package
Chuck's Southern BBQ,6501 W 79th St,Burbank,IL,604590000,7082298700,Package
Kenwood Liquors- Homer Glen,12037 W 159th St,Homer Glen,IL,604910000,0,Package
Binny's Beverage Depot 1729 N Marce,1720 N Marcey St,Chicago,IL,606140000,3126444394,Package
Dixie Kitchen & Bait Shop,2352 E 172nd St,Lansing,IL,604380000,7084741378,Package
Binny's - Schaumburg,323 W Golf Rd,Schaumburg,IL,601750000,8478826000,Package
Santori's Liquors,3529 Ridge Rd,Lansing,IL,604380000,7087470334,Package
VENEGONI DISTRIBUTING,105 DILLINGER RD,CARBONDALE,IL,62901,6185494489,Package
Binny's - Glen Ellyn,640 Roosevelt Rd,Glen Ellyn,IL,601370000,6305452550,Package
Binny's - Plainfield,12307 S Route 59,Plainfield,IL,605440000,8154369300,Package
CAJUN CONNECTION,897 E US ROUTE 6,UTICA,IL,61373,8156679855,Package
Binny's - Lake Zurich,975 S Rand Rd,Lake Zurich,IL,600470000,8474381437,Package
F & R,2129 S Halsted,Chicago,IL,606080000,3124213031,Package
Treasure Island-55th St,1526 E 55th St,Chicago,IL,606150000,7733586400,Package
BINNY'S-BLOOMINGTON,1409 N VETERANS PARKWAY,BLOOMINGTON,IL,61704,3096610845,Package
Sal's Beverage World,695 W St Charles Rd,Elmhurst,IL,601260000,6308339800,Package
Binny's - Orland Park,103A Orland Pk Plz,Orland Park,IL,604620000,7082269902,Package
Kimbark Liquors,1214 E 53rd St,Chicago,IL,606150000,7734933355,Package
FRIAR TUCK SPRINGFIELD,2930 CONSTITUTION DRIVE,SPRINGFIELD,IL,62704,2176981116,Package
J.J. Peppers #18,3201 W Diversey Ave,Chicago,IL,606470000,7737721417,Package
Main St. Deli & Liquors,5425 S Lagrange Rd,Countryside,IL,605250000,7083540355,Package
Binny's - Bloomingdale,353 Army Trail Rd,Bloomingdale,IL,601080000,6306713860,Package
Pippin's Tavern,806 N Rush St,Chicago,IL,606110000,3127875435,Package
Armanetti - Carol Stream,521 Schmale Rd,Carol Stream,IL,601880000,6306531690,Package
FAMOUS WABASH,1540 WABASH,SPRINGFIELD,IL,62704,2177932808,Package
Binny's - Highland Park,153 Skokie Valley Hwy,Highland Park,IL,600350000,8478315400,Package
The Grape & Grain Company,18031 Dixie Hwy,Homewood,IL,604300000,7736100855,Package
FRIAR TUCK PEORIA,1401 W GLEN AVE,PEORIA,IL,61614,6931501,Package
135 UNCLASSIFIED ACCOUNT,PO Box 6247,Peoria,IL,61601,0,Package
DONNEWALD DISTRIBUTING,2100 SAMUEL W. ANDREWS DR,GREENVILLE,IL,62246,6186641600,Package
Famous Liquors - Madison,7714 W Madison,Forest Park,IL,601300000,7083662500,Package
RANDALL'S WINES & SPIRITS,10800 LINCOLN HWY,FAIRVIEW HEIGHT,IL,62208,6183949800,Package
Walgreens #15196,151 N State St,Chicago,IL,606010000,8473158222,Package
Bottles and Cans,4109 N Lincoln Av,Chicago,IL,606180000,7732439389,Package
Torrence Liquors,616 Torrence Av,Calumet City,IL,604090000,7088623939,Package
Binny's - Downer's Grove,2010 Butterfield Rd,Downers Grove,IL,605150000,6307059463,Package
DONNIE'S HOMESPUN / SPRIN,107 W COOK,SPRINGFIELD,IL,62704,2175235300,Package
FRIAR TUCK CHAMPAIGN,1333 SAVOY PLAZA PLACE,SAVOY,IL,61874,2173557933,Package
BINNY'S CHAMPAIGN,802 W TOWN CENTER BLVD,CHAMPAIGN,IL,61821,2173550625,Package
FAMOUS # 1 WINE & SPIRITS,1355 N IL RTE 48 STE 2,DECATUR,IL,625263789,2174281640,Package
WEST PIERCE LIQ.,111 1/2 W PIERCE,MACOMB,IL,61455,8331566,Package
George's Wine & Liquors,3335 W 115th St,Merrionette Park,IL,608030000,7082938890,Package
FRIAR TUCK BLOOMINGTON,2401 MALONEY DR,BLOOMINGTON,IL,61704,3096645890,Package
Extra Value Wine & Liqs,348 S Budler Rd,Romeoville,IL,604460000,8154399463,Package
Angels Spirits,1000 E 31st St,La Grange Park,IL,605260000,7084824019,Package
STERN BEVERAGE,961 TECH DRIVE,MILAN,IL,61264,3097872337,Package
UFS SAVINGS CENTER INC,ATTN:STEVE PREECE,PEORIA,IL,61602,3096734503,Package
Liquor World,110 Meadowview Ctr,Kankee,IL,609010000,8159374444,Package
MUD PUDDLE BRICK OVEN PIZ,222 MEADOWS AVENUE,EAST PEORIA,IL,61611,0,Package
Madison Fine Wines,1340 W Madison St,Chicago,IL,606070000,3125263857,Package
Wine Styles- Evanston,1741 Sherman Av,Evanston,IL,602010000,8473284400,Package
OLD CHICAGO GRAND PRAIRIE,7610 N GRAND PRAIRIE,PEORIA,IL,61615,6911885,Package
LUTHY BOTANICAL GARDEN,2218 N PROSPECT,PEORIA,IL,61603,6863362,Package
Cardinal Liquor Barn,9630 Southwest Hwy,Oak Lawn,IL,604530000,7084990332,Package
SCHNUCK'S BLOOMINGTON #,1701 E EMPIRE ST,BLOOMINGTON,IL,61701,3096639300,Package
Malloy's Finest Wine & Spirits - Li,1020 Maple Avenue,Lisle,IL,605320000,6302710707,Package
Stang Kelly Liquors / Crest Hill Cr,712 W Jefferson,Joliet,IL,604350000,8157231211,Package
Third Rail Tavern,1133 W Madison St,Chicago,IL,606070000,3124329107,Package
RUDY'S LIQUOR INC,285 CHARTRES ST,LASALLE,IL,61301,8152232351,Package
Antioch Fine Wine & Liquors,1180 S Main St,Antioch,IL,600020000,8473953540,Package
Friar Tuck Champaign,1333 Savoy Plaza Drive,Savoy,IL,618740000,2176981182,Package
ALL MART SMOKE SHOP & LIQ,302 EAST MAIN STREET,MASCOUTAH,IL,62258,6185663060,Package
ECKERTS INC,951 S GREENMOUNT RD,BELLEVILLE,IL,62220,0,Package
CAFE BRIO,524 EAST MONROE,SPRINGFIELD,IL,62701,2175440574,Package
Malloy's Finest Wine & Spirits - Gl,580 Roosevelt Rd,Glen Ellyn,IL,601370000,6304694660,Package
SCHNUCK'S PEORIA,4800 N. UNIVERSITY,PEORIA,IL,61614,6903242,Package
Extra Value Liquors,7300 N Western Av,Chicago,IL,606450000,7737642933,Package
Foremost - Grayslake,145 S Hwy 45,Grayslake,IL,600300000,8472231199,Package
Palmers,565 LaGrange Rd,La Grange,IL,605250000,7084827127,Package
MORRIS LIQUORS,2407 SYCAMORE DRIVE,MORRIS,IL,604501020,8159424414,Package
FAIRVIEW LIQUOR,5329 NORTH ILLINOIS STREE,FAIRVIEW HEIGHT,IL,62208,6183557646,Package
MARKET ALLEY WINES,59 PUBLIC SQUARE,MONMOUTH,IL,61462,3097341800,Package
Armanetti's - Woodstock,1550 S Eastwood Drive,Woodstock,IL,600980000,8153384330,Package
THE FRESH MARKET - EVANSVILLE,6401 EAST LLOYD EXPRESSWAY,EVANSVILLE,IN,47715,8124025361,Package
YAT'S COLUMBUS,325 4TH STREET,COLUMBUS,IN,47201,8125526437,Package
COST PLUS WORLD MARKET - INDIANAPOL,2200 E. 116TH,CARMEL,IN,46032,3177060400,Package
FORTVILLE GRILLE,901 EAST BROADWAY STREET,FORTVILLE,IN,46040,3177474988,Package
PAPA JOE'S LIQUORS,4720 NATIONAL ROAD E.,RICHMOND,IN,47374,7659657883,Package
COLUMBIA STREET WEST RESTAURANT,135 W. COLUMBIA ST.,FORT WAYNE,IN,46802,2604225055,Package
ALABAMA LIQUORS,947 N. ALABAMA,INDIANAPOLIS,IN,46202,3176348792,Package
FRONT PAGE SPORTS BAR,310 MASSACHUSETTS AVE,INDIANAPOLIS,IN,46204,3176316682,Package
SCHNUCKS EVANSVILLE,3501 N GREEN RIVER ROAD,EVANSVILLE,IN,47715,8124734510,Package
YATS @ TRADERS POINT,5650 WEST 86TH STREET,INDIANAPOLIS,IN,46278,3178799287,Package
BOURBON & CANAL,3590 SOUTH HWY 41,TERRE HAUTE,IN,47802,8122324222,Package
TRIANGLE LIQUORS,3210 CALUMET,VALPARAISO,IN,46383,2194774849,Package
KEITHS,1872 INDIANAPOLIS BLVD.,WHITING,IN,46394,2196594444,Package
BIG RED LIQUORS #2,418 N. COLLEGE AVE.,BLOOMINGTON,IN,47404,8123397345,Package
WINETREE - WASHINGTON,1951 WASHINGTON AVE.,EVANSVILLE,IN,47714,8124768141,Package
SOUTHPORT LIQUORS,1450 W. SOUTHPORT RD. STE. A,INDIANAPOLIS,IN,46217,3178650076,Package
OLD FOX INN,113 E 2ND STREET,LYNNVILLE,IN,47619,8129225250,Package
BAESLER'S SUPERMARKET,2900 POPLAR ST,TERRE HAUTE,IN,47803,8122322498,Package
PARTY LIQUORS - GRIFFITH,404 N. BROAD ST.,GRIFFITH,IN,46319,2199242055,Package
RED BARON,123 KELLNER ST,RENSSELAER,IN,47978,2198668134,Package
LUCKY MOOSE,622 EAST DUPONT ROAD,FORT WAYNE,IN,46825,2604905765,Package
THE MALT SHOPPE,2407 LAFAYETTE AVE,CRAWFORDSVILLE,IN,47933,7653626258,Package
SAHARA MART EAST,2611 E. 3RD ST.,BLOOMINGTON,IN,47401,8123396222,Package
BOTTLE SHOPPE,4901 N. COLLEGE,INDIANAPOLIS,IN,46205,3172836600,Package
PAYLESS LIQUOR 116TH #17,7351 E. 116TH STREET,FISHERS,IN,46038,3178493651,Package
THE CORK,3502 TWO MILE HOUSE ROAD,COLUMBUS,IN,47201,8123429237,Package
O'SULLYS BOTTLE SHOP,8378 STATE RD 64,GEORGETOWN,IN,47122,8129512455,Package
RED BARREL LIQUOR,240 E. HIGH ST,MOORESVILLE,IN,46158,3178311797,Package
PARTY TIME,9632 HWY 150,GREENVILLE,IN,47124,8129234400,Package
PARTI-PAK LIQUORS,2633 E. STOP 11 ROAD,INDIANAPOLIS,IN,46227,3178897452,Package
THE CORK 8,1530 SOUTH HARRISON ST,SHELBYVILLE,IN,46176,0,Package
BELMONT #6 TIMES CORNERS,5992 W. JEFFERSON,FORT WAYNE,IN,46804,2604326636,Package
KEN'S LIQUOR STORE,1101 DARLINGTON AVE,CRAWFORDSVILLE,IN,47933,7653622505,Package
COLFAX LIQUORS,100 N COLFAX,GRIFFITH,IN,46319,2199228534,Package
AL'S CUTRATE LIQUORS,325 E. 10TH ST.,JEFFERSONVILLE,IN,47130,8122827634,Package
PAYLESS LIQUORS - #5 EMERSON,4924 S. EMERSON AVE.,INDIANAPOLIS,IN,46107,3177849105,Package
MUNCIE LIQUORS WHEELING,801 N WHEELING,MUNCIE,IN,47303,7652825550,Package
BARE SHOULDER BBQ,318 MAIN CROSS STREET,CHARLESTOWN,IN,47111,3176586347,Package
SHALLOS,8811 HARDEGAN RD.,INDIANAPOLIS,IN,46227,3178827997,Package
THE CORK VI,3995 25TH ST.,COLUMBUS,IN,47201,8123763366,Package
BIG RED LIQUORS #15,2401 W 3RD STREET,BLOOMINGTON,IN,47404,8123332778,Package
BELMONT #3,1103 W. STATE BLVD.,FT. WAYNE,IN,46808,2604264259,Package
PAYLESS LIQUOR OLIO #19,11416 OLIO ROAD,FISHERS,IN,46038,3175768280,Package
FALLS OF THE OHIO LIQUORS,232 S CLARK BLVD,CLARKSVILLE,IN,47129,8127252444,Package
WISE GUYS DISCOUNT LIQUORS,9127 TAFT ST,MERRILLVILLE,IN,46410,2197919419,Package
KORK N' KEG IX,810 INDIANAPOLIS RD.,GREENCASTLE,IN,46135,7656530166,Package
UNITED PACKAGE LIQUORS PLAINFIELD,2230 STAFFORD ROAD,PLAINFIELD,IN,46168,3172686494,Package
ELITE BEVERAGE #2,11915 E. WASHINGTON ST.,INDIANAPOLIS,IN,46229,3178948258,Package
LIQUOR STOP,9218 INDIANAPOLIS BLVD.,HIGHLAND,IN,46322,2198386884,Package
KING RICHARDS WINE & SPIRITS,3311 FRANKLIN STREET,MICHIGAN CITY,IN,46360,2198798383,Package
VILLAGE BOTTLE SHOPPE #2,404 SAGAMORE PKWY WEST,WEST LAFAYETTE,IN,47906,7654973523,Package
OLD POINT TAVERN MASS AVE.,401 MASSACHUSETTS AVE.,INDIANAPOLIS,IN,46204,376348943,Package
SABBATICAL,921 BROAD RIPPLE AVE,INDIANAPOLIS,IN,46220,3172055555,Package
BOTTLE SHOP TOO,1212 LINCOLNWAY,LAPORTE,IN,46350,2193622458,Package
HAMILTON BEVERAGE,2290 E. 116TH. ST.,CARMEL,IN,46032,3178440872,Package
KNOTTY PINE ON THE BAYOU,6202 LICKING PIKE,COLD SPRING,KY,41076,8597812200,Package
PARTY SOURCE (THE),95 RIVIERA DR,BELLEVUE,KY,41073,2914007,Package
VALU MARKET,1250 BARDSTOWN RD,LOUISVILLE,KY,40204,5024592221,Package
LIQUOR BARN (ST MATT)905,4301 SHELBYVILLE RD,LOUISVILLE,KY,40207,5028977773,Package
LIQ. BARN #980 TOWN CTR,4301 TOWNE CENTER DR,LOUISVILLE,KY,41241,5024264222,Package
J. GUMBO,1923 S. 4TH ST,LOUISVILLE,KY,40208,15026372806,Package
JOES OK BAYOU,9874 LINN STATION ROAD,LOUISVILLE,KY,40223,5024261320,Package
FEEDMILL RESTAURANT,3541 US HWY 60 EAST,MORGANFIELD,KY,42437,2703890047,Package
DEE FELICE'S,529 MAIN ST,COVINGTON,KY,41011,2612365,Package
DOC CROWS,127 W MAIN ST,LOUISVILLE,KY,402021343,15028961010,Package
PARTY MART,4808 BROWNSBORO RD,LOUISVILLE,KY,40207,5028930951,Package
LIQ. BARN #903(BEAUMONT),921 BEAUMONT CENTER PKWY,LEXINGTON,KY,40503,0,Package
MARIKKA'S,411 SOUTHLAND DR,LEXINGTON,KY,40503,8592751925,Package
4TH & CARDINAL FOOD MART,1927 S. 4TH STREET,LOUISVILLE,KY,40208,15026357740,Package
LIQUOR PALACE 7,344 E LEE ST,LOUISVILLE,KY,40208,5026341302,Package
PROSPECT PARTY CENTER,9521-B US HWY 42,PROSPECT,KY,40059,5022283990,Package
SELENAS AT WILLOW LAKE TA,10609 LAGRANGE ROAD,LOUISVILLE,KY,40223,5022459004,Package
L&C PACKAGE LIQUORS,317 CHESTNUT STREET,MURRAY,KY,42071,12707619727,Package
BEST SMOKE LIQ AND WINE,3303 BARBOUR LN,LOUISVILLE,KY,40241,15027492979,Package
LIQUOR BARN DANVILLE,2900 S. DANVILLE BYPASS,DANVILLE,KY,40422,0,Package
PARTY MART #4,3050 BARDSTOWN RD,LOUISVILLE,KY,40205,15024521809,Package
EVERGREEN LIQUORS INC,12017 SHELBYVILLE ROAD,LOUISVILLE,KY,40243,5022441957,Package
LIQUOR BARN 990 BOW GREEN,2625 SCOTTSVILLE ROAD,BOWLING GREEN,KY,42104,12704679998,Package
LIQ. BARN #965 (BASHFORD),3614 BURCHEL BYPASS #101,LOUISVILLE,KY,40218,15024598989,Package
LIQ. BARN #904 (RICHMOND),3040 RICHMOND RD,LEXINGTON,KY,40509,0,Package
LIQUOR KING,1601 CUMBERLAND FALLS HWY,CORBIN,KY,40701,0,Package
PARTY OUTLET,10402 SHELBYVILLE RD,LOUISVILLE,KY,402233120,15022531117,Package
LEGION LIQUORS,228 THOMPSONVILLE,OAK GROVE,KY,42267,12706408399,Package
LIQ. BARN #970 FERN VLY,3420 FERN VALLEY RD,LOUISVILLE,KY,40213,5029681666,Package
SAV A STOP,427 E WARNOCK ST,LOUISVILL,KY,40217,0,Package
KROGER #705 (LIQ. STORE),776 RICHMOND PLAZA,RICHMOND,KY,40475,0,Package
MELLOW MUSHROOM PIZZA,503-505 SOUTH UPPER STREE,LEXINGTON,KY,40508,8592816111,Package
LIQUOR CABINET,1990 NORTHBEND ROAD,HEBRON,KY,41005,5869270,Package
ASHLAND BEVERAGE CENTER,744 WINCHESTER AVE,ASHLAND,KY,41101,6063292866,Package
BEVERAGE WAREHOUSE INC,4232 SHELBYVILLE ROAD,LOUISVILLE,KY,40207,0,Package
PARTY TOWN,6823 BURLINGTON PK,FLORENCE,KY,41042,3714466,Package
J'S LIQUORS,2216 NEW HARTFORD ROAD,OWENSBORO,KY,42302,12706838378,Package
WALGREEN 11495,1 VIEWPOINT DR,ALEXANDRIA,KY,410011086,0,Package
VALU MARKET,205 OAKBROOK DR,MT WASHINGTON,KY,40047,5025386629,Package
BJ'S SPORTS PUB,8238 DIXIE HIGHWAY,LOUISVILLE,KY,40258,5029351103,Package
WINES ON VINE,400 OLD VINE ST,LEXINGTON,KY,40502,8592430017,Package
CHUCK'S HARTLAND EXPRESS,1660 SCOTTSVILLE RD #B,BOWLING GREEN,KY,42101,12703937077,Package
LIQUOR CITY UNBRIDLED,10050 NORBOTTON DR UNTI A,FLORENCE,KY,41042,0,Package
LIQ. BARN #920 (HAMBURG),1837 PLAUDIT PLACE,LEXINGTON,KY,40509,8592945700,Package
FATHER & SON'S LIQUOR,36 BASSET AVE,MADISONVILLE,KY,42431,12708215078,Package
OCONNELLS IRISH PUB,5520 FERN VALLEY RD  SUIT,LOUISVILLE,KY,40228,5029383308,Package
BARRET LIQUORS,1033 BARRET AVE,LOUISVILLE,KY,40204,5025846828,Package
BLUEGRASS CARRYOUT,2820 BLUEGRASS DR,HIGHLAND HGTS,KY,41076,7818881,Package
KEYSTONE LIQUORS,130 KEYSTONE AVENUE,BARDSTOWN,KY,40004,0,Package
COST PLUS,4600 SHELBYVILLE RD,ST MATHEWS,KY,40207,5028910066,Package
KREMER'S MKT,755 BUTTERMILK PK,CRESCENT SPRS,KY,41017,3411067,Package
LIQ. BARN #960 (HURST),1850 S HURSTBOURNE PKWY,LOUISVILLE,KY,40220,5024910753,Package
ETHEL & RAMONES,1615 SULGRAVE AVE,BALTIMORE,MD,21209,4106642971,Package
CORRIDOR FINE WINES,3321 LAU FT MEA,LAUREL,MD,20724,3016178507,Package
BELTWAY WINE & SPIRITS,8727 LOCH RAVEN,BALTIMORE,MD,21286,6688884,Package
MONTGOMERY CO D L C  #,16650 CRABBS BR,ROCKVILLE  MD,MD,20855,2171920,Package
VILLAGE PUMP LIQS,4901 GREENBELT,COLLEGE PARK,MD,20740,3014748922,Package
NORTHWEST FINE WINE SPIRITS,808 WESTMIN RD,REISTERSTOWN,MD,21136,4105171240,Package
RAMS HEAD TAVERN,33 WEST ST,ANNAPOLIS,MD,21401,2684545,Package
WELLS DISCOUNT LIQ,6310 YORK RD,BALTIMORE,MD,21212,4352700,Package
BAY RIDGE  WINE &  SPIRIT,111 HILLSMERE DR,ANNAPOLIS,MD,21403,4102681961,Package
RAMS HEAD TAVERN,8600 FOUNDRY STREET,SAVAGE,MD,20763,6043454,Package
COLLEGE PARK LIQUORS,4707 NAVAHOE ST,COLLEGE PARK,MD,20740,3014745555,Package
THE PERFECT POUR,6630 MARIE CURIE DR,ELKRIDGE,MD,21075,4432850702,Package
MARYLAND WINE & SPIRITS,5736 DEALE CHURCHTON ROAD,DEALE,MD,20751,4108670611,Package
OLD LINE FINE W&S & BISTRO,11011 BALTIMORE AVENUE,BELTSVILLE,MD,20705,2402979796,Package
LIQUOR BARN,520 E BALTO ST,TANEYTOWN,MD,21787,4107511566,Package
DRIVER BREAKAGE,8201 STAYTON DR,JESSUP,MD,20794,7243300,Package
NICK'S OF CALVERT,930 COSTLEY WAY,PRINCE FREDERICK,MD,20678,4104147105,Package
HUNT VALLEY WINE  LIQ & BEER,116-A SHAWAN ROAD,HUNT VALLEY,MD,21030,4107713232,Package
SAMPLES - BRANDON CONNOLLY,8201 STAYTON DRIVE,JESSUP,MD,20794,0,Package
HONEYGO LIQUORS,5004 HONEYGO CENTER DR,PERRY HALL,MD,21128,4105295500,Package
PETITE CELLARS,11079 RESORT ROAD  SUITE 100,ELLICOTT CITY,MD,21042,4107500562,Package
SPIRITAS,786 WASHINGTON BOULEVARD,BALTIMORE,MD,21230,4438696035,Package
LAUREL PARK LIQS,13600 BALTIMORE AVE,LAUREL,MD,20707,3017253354,Package
STATE LINE LIQUORS,1610 ELKTON RD,ELKTON,MD,21921,3983838,Package
RUDYS TAVERN,1773 GENERALS,ANNAPOLIS,MD,21401,4108498058,Package
LONDONTOWNE WINE & SPIRITS,141 MAYO RD,EDGEWATER,MD,21037,4109565115,Package
LAGNIAPPE,145 JACKSON CUT,MARQUETTE,MI,49885,9062268200,Package
COST PLUS #112 LANSING,427 MALL COURT,LANSING,MI,48912,5173371100,Package
MAC'S ACADIAN SEAFOOD,104 E. MICHIGAN AVE,SALINE,MI,48176,7349446227,Package
COST PLUS #85 ANN ARBOR,2900 S. STATE ST.,ANN ARBOR,MI,48104,7343271900,Package
BOYNE COUNTRY PROVISIONS,127 WATER ST,BOYNE CITY,MI,49712,2315822151,Package
HORROCKS FARM MARKET,7420 W. SAGINAW HW.,LANSING,MI,48917,5173233782,Package
HORROCK'S,235 CAPITAL AVENUE,BATTLE CREEK,MI,49017,2699663200,Package
LAGER HOUSE,1254 MICHIGAN AVE.,DETROIT,MI,48555,2488905803,Package
HARBOR SPRINGS IGA,300 W LAKE ST,HARBOR SPRINGS,MI,49740,0,Package
WORLD OF BEER,1300 S. UNIVERSITY,ANN ARBOR,MI,48104,7349132430,Package
PEARLS,617 AMES ST,ELK RAPIDS,MI,49629,2312640530,Package
ANGELIS FOODS,1401 8TH AVENUE,MENOMINEE,MI,49858,9068635575,Package
VINEYARD - MARQUETTE,700 CHIPPEWA SQUARE,MARQUETTE,MI,49855,9062269032,Package
ALEX'S MKT & GRILL,6410 GRANGE HALL RD,HOLLY,MI,48442,2486346100,Package
LOGANS ALLEY,916 MICHIGAN N.E.,GRAND RAPIDS,MI,49503,6164581612,Package
FOOD CASTLE OF GR. BLANC,3035 GRAND BLANC RD,GRAND BLANC,MI,48439,8106954210,Package
SUPERIOR BLUE LINK,410 N. THIRD ST,MARQUETTE,MI,49855,9062251458,Package
CORNER GROCER,1045 KALAMAZOO,PETOSKEY,MI,49770,2314879200,Package
OLD TOWN GENERAL STORE,408 E. GRAND RIVER,LANSING,MI,48906,5174876847,Package
OLIVER T'S,1553 EAST HILL ROAD,GRAND BLANC,MI,48439,8106956550,Package
BERT'S ON BROADWAY,1315 BROADWAY,DETROIT,MI,48226,3139652260,Package
ROYAL LIQUOR #3,808 S. CENTER RD.,FLINT,MI,48506,8107153007,Package
VINNY'S MART,6011 LAKESHORE RD,BIRTCHVILLE,MI,48059,8103857249,Package
TIM'S MARKET,715 NAPOLEON RD,MICHIGAN CENTER,MI,49203,0,Package
PASCHE'S,11081 E MICHIGAN AVE,BATTLE CREEK,MI,49014,2699642514,Package
LADD'S & COMPANY,4230 HENRY ST,MUSKEGON,MI,49441,2317992130,Package
SUPER LIQUOR,1200 W MICHIGAN,JACKSON,MI,49202,5177822100,Package
SUBURBAN COLLECTION-TRADE,46100 GRAND RIVER,NOVI,MI,48374,2483485600,Package
LAKESIDE MARKET,2242 N LONG LAKE RD,FENTON,MI,48430,8106291681,Package
ANDREW VANTIL SAMPLE ACCT,BLANK,BLANK,MI,,0,Package
THE IDEAL PLACE,212 TERRITORIAL,BENTON HARBOR,MI,49022,2693692642,Package
MORGAN AND YORK,1928 PACKARD,ANN ARBOR,MI,48104,7346620798,Package
BLUE GATOR,106 N COURT ST,MT PLEASANT,MI,48858,9897725486,Package
ABC PARTY STORE,55 28TH SW,GRAND RAPIDS,MI,49548,6164525590,Package
SPRING VALLEY,2885 E. HIGHLAND ROAD,HIGHLAND TOWNSHIP,MI,48356,2488874040,Package
JONNA'S MARKET,1485 N. MICHIGAN AVENUE,HOWELL,MI,48843,5175458000,Package
GRUNST BROTHERS P/S,624 N. STATE,BIG RAPIDS,MI,49307,2317967253,Package
B&B LIQUOR,2440 28TH STREET S.E.,GRAND RAPIDS,MI,49512,6169569413,Package
NEIMAN'S FAMILY MARKET,1169 CARNEY DRIVE,ST CLAIR,MI,48079,8103294535,Package
B & W OLDE VILLAGE INN,116 MAIN STREET,BUCHANAN,MI,49107,2696952900,Package
COST PLUS WINE IMPORTER,2448 MARKET STREET,DETROIT,MI,48207,3132593845,Package
MEGA BEV - OSHTEMO,6619 WEST MAIN,KALAMAZOO,MI,49009,2692509021,Package
MERCHANT'S WAREHOUSE,22250 MICHIGAN AVENUE,DEARBORN,MI,48124,3135638700,Package
LIQUOR BOY,5620 CEDAR LAKE RD,ST LOUIS PARK,MN,55416,9525122200,Package
DIXIE'S BAR & GRILL,695 GRAND AVE,ST PAUL,MN,55105,6512227345,Package
MERWIN LIQUORS,700 W BROADWAY,MINNEAPOLIS,MN,55411,6125223608,Package
MGM - WOODBURY,1580 WOODLANE DR,WOODBURY,MN,55125,6517394110,Package
FRANCE 44 WINE & SPIRITS,4351 FRANCE AVE S,MINNEAPOLIS,MN,55410,6129253252,Package
BLUE MAX LIQUOR,14640 10TH AVE S,BURNSVILLE,MN,55337,9524323350,Package
TUCKERS AT BUCKHILL,15400 BUCKHILL ROAD,BURNSVILLE,MN,55306,0,Package
SURDYK'S LIQUOR,303 HENNEPIN AVE E,MINNEAPOLIS,MN,55414,6123793232,Package
MGM - INVER GROVE HEIGHTS,7804 CAHILL AVE,INVER GROVE HEIGHTS,MN,55075,6514510633,Package
MGM - FRANCE,3701 OLD SHAKOPEE RD #500,BLOOMINGTON,MN,55431,9528889421,Package
WILLIAM'S UPTOWN PUB,2911 HENNEPIN AVE,MINNEAPOLIS,MN,55408,6128236271,Package
HASKELL'S - CHANHASSEN,19900 W 78TH St/ PO BOX 446,CHANHASSEN,MN,55317,9523451115,Package
APPLE VALLEY MUNI #3,5470 157TH ST W,APPLE VALLEY,MN,55124,9529532525,Package
CORK & CASK,8318 STATE HWY 23 W,ST CLOUD,MN,56301,3202575484,Package
SOUTH LYNDALE LIQUORS,5300-12 LYNDALE AVE S,MINNEAPOLIS,MN,55419,6128275811,Package
LIQ BARREL - GV,7890 OLSON MEMORIAL HWY,GOLDEN VALLEY,MN,55427,7635444441,Package
RUSTY TACO,508 LEXINGTON PKWY S,ST PAUL,MN,55101,6122829848,Package
MGM - MANKATO,201 VICTORY DR N,MANKATO,MN,56001,5076252420,Package
LAKE WINE & CHEESE,404 W LAKE ST,MINNEAPOLIS,MN,55408,6122420073,Package
SILVER COAST WINE CO.,105 SOUTH HOWE STREET,SOUTHPORT,NC,28461,91077751510000000000,Package
CAJUN QUEEN-EAST 7TH ST,1800 EAST 7TH STREET,CHARLOTTE,NC,28204,70437790170000000000,Package
LETTY'S,2121 SHAMROCK DRIVE,CHARLOTTE,NC,28205,70481787020000000000,Package
SURF HOUSE,604 N. LAKE PARK BLVD  B,CAROLINA BEACH,NC,28248,91070704220000000000,Package
CAJUN YARD DOG,8036 PROVIDENCE RD,CHARLOTTE,NC,28277,70475217500000000000,Package
JIMMY MACS,121 MAIN ST,BRYSON CITY,NC,28713,82848847000000000000,Package
PAPA MOJO'S ROADHOUSE,5410 HWY 55,DURHAM,NC,27713,91936122220000000000,Package
LUELLA'S BAR-B-Q,501 N. MERRIMON AVE.,ASHEVILLE,NC,28804,82860602140000000000,Package
BLUE MOON CAFE-FAYETTEVIL,310 HAY STREET,FAYETTEVILLE,NC,28301,91086047000000000000,Package
FAT PELICAN,8 SOUTH BLACK DR.,CAROLINA BEACH,NC,28428,91045840600000000000,Package
WORLD MARKET-#159 MATTHEW,10530 NE PARKWAY,MATTHEWS,NC,28105,70484920040000000000,Package
A SOUTHERN SEASON-HILLSBO,505 ENO STREET,HILLSBOROUGH,NC,27278,91924516420000000000,Package
WORLD MARKET-#207 S.POINT,6807 FAYETTEVILLE RD,DURHAM,NC,27713,91940521120000000000,Package
WORLD MARKET-#129 S BLVD,9557 SOUTH BLVD,CHARLOTTE,NC,28273,70455416920000000000,Package
TOTAL WINE-#610 DURHAM,3615 WITHERSPOON BLVD,DURHAM,NC,27707,91948950820000000000,Package
BAYOU SMOKEHOUSE & GRILL,130 EAST MAIN ST,BANNER ELK,NC,28604,82889889520000000000,Package
TOTAL WINE-#611N. HILL ST,4216 CIRCLE AT NORTH HILL,RALEIGH,NC,27609,91923225800000000000,Package
BATTISTELLAS,200 EAST MAIN,RALEIGH,NC,27601,91934960800000000000,Package
BLUE DOOR CAFE,132 WATER STREET,WASHINGTON,NC,27889,25294045550000000000,Package
LONESOME VALLEY-CANYON,150 LONESOME VALLEY RD,SAPPHIRE,NC,28774,82874376960000000000,Package
BOSU'S WINE & GOURMET,311-B MILLER ST.,WAYNESVILLE,NC,28786,80034311240000000000,Package
KITCHEN,764 MLK JR. BLVD,CHAPEL HILL,NC,27514,91953781670000000000,Package
SATELLITE BAR & LOUNGE,120 GREENFIELD STREET,WILMINGTON,NC,28401,91052080840000000000,Package
TOTAL WINE-#604 WIN. SAL.,551 SOUTH STRATFORD ROAD,WINSTON SALEM,NC,27103,33624503880000000000,Package
TOTAL WINE-#606 CARY,333A CROSSROADS BLVD,CARY,NC,27511,91923533220000000000,Package
THE BIG EASY,231 GRANDE HEIGHTS DRIVE,CARY,NC,27513,91946860070000000000,Package
THE STRING BEAN,106 NORTH MAIN STREET,BELMONT,NC,28012,70435017740000000000,Package
SAMMY'S PUB,25 SOUTH MAIN ST,BELMONT,NC,28012,70482542660000000000,Package
TOTAL WINE-#607 BRIAR CRK,8381 BRIER CREEK PARKWAY,RALEIGH,NC,27617,91929303620000000000,Package
CHIP'S WINE & BEER MARKET,2200 NORTH CROATAN HWY,KILL DEVIL HILLS,NC,27948,25220727180000000000,Package
WORLD MARKET-#249 RALEIGH,5900 POYNER LANE,RALEIGH,NC,27616,91995448330000000000,Package
SAMS QUIK SHOP,1605 IRWIN ROAD,DURHAM,NC,27705,91928641100000000000,Package
BOB'S WINE SHOP  LLC,2828 RAEFORD RD,FAYETTEVILLE,NC,28303,91048547000000000000,Package
MCCS-HADNOT POINT,BLD.#84 HOLCOM BLVD,CAMP LEJEUNE,NC,28547,91045150700000000000,Package
TOTAL WINE-#602 BATTLEGRD,2976 BATTLEGROUND AVENUE,GREENSBORO,NC,27408,33623504000000000000,Package
BIG EASY,222 FAYETTEVILLE STREET,RALEIGH,NC,27601,91983260820000000000,Package
SPOON RIVER ART & MARKET,263 PAMLICO STREET,BELHAVEN,NC,27810,25294538990000000000,Package
CAROLINA VINES  LLC,19 N COLLEGE AVE.,NEWTON,NC,28658,82874384630000000000,Package
BIG WAVES MARKET,26006 HWY 12,WAVES,NC,27982,25298723520000000000,Package
CHIP'S WINE AND BEER MARK,102 MOYOCK COMMONS DRIVE,MOYOCK,NC,27958,25243516250000000000,Package
WORLD MARKET-#265 A'VILLE,9 MCKENNA ROAD,ASHEVILLE,NC,28704,82865401190000000000,Package
HOWARD'S PUB,1175 IRVIN GARRISH HWY,OCRAKOKE,NC,27960,25292844410000000000,Package
FINCASTLES DINER,215 SOUTH ELM ST,GREENSBORO,NC,27401,33627289680000000000,Package
BROAD STREET DELI & MKT,129 EAST BROAD STREET,DUNN,NC,28339,91089110020000000000,Package
WORLD MARKET-#168 WINSTON,1075 HAINES MALL BLVD,WINSTON SALEM,NC,27103,33676042690000000000,Package
CHILLFIRE BAR AND GRILL,121 CROSS CENTER ROAD,DENVER,NC,28037,70482721210000000000,Package
LOVIES KITCHEN TABLE,1130-B COROLLA VILLAGE RD,COROLLA,NC,27927,25220252890000000000,Package
TRIANGLE WINE 2,144 BRUCEWOOD RD,SOUTHERN PINES,NC,28387,91983087200000000000,Package
CHEFS TABLE,30 CHURCH STREET,WAYNESVILLE,NC,28786,82845262100000000000,Package
ECO--CHRIS ARCHER,120 OLD US HWY 70,SWANNANOA,NC,27278,0,Package
CITY LIGHTS CAFE,3 EAST JACKSON ST,SYLVA,NC,28779,82858694990000000000,Package
BREWMASTER'S BAR AND GRILL,2115 FOREST HILLS RD,WILSON,NC,27893,25222794630000000000,Package
CORNUCOPIA GOURMET,16 CASHIERS SCHOOL RD,CASHIERS,NC,28717,82852625900000000000,Package
BOURBON STREET,35 NORTH FRONT STREET,WILMINGTON,NC,28401,91031895440000000000,Package
WORLD MARKET #366 BELGATE,8150 IKEA BLVD,CHARLOTTE,NC,28262,70459820970000000000,Package
WORLD MARKET-#173 G'BORO,3510 HIGH POINT RD,GREENSBORO,NC,27407,33631587000000000000,Package
LA BOUTEILLE,10 NORTH TRADE STREET,TRYON,NC,28782,86426688710000000000,Package
CLASSIC WINESELLERS-WAYNE,20 CHURCH ST,WAYNESVILLE,NC,28786,82845260000000000000,Package
SOHO ORGANIC MARKET,406 S. GRIFFIN ST  STE E,ELIZABETH CITY,NC,27909,25233883780000000000,Package
CAJUN CONNECTION,549 HIGHLANDS RD,FRANKLIN,NC,28734,82836962880000000000,Package
WORLD MARKET-#127 CARY,2410 WALNUT STREET,RALEIGH,NC,27511,91985161040000000000,Package
SWING BRIDGE BEER & WINE,106 NORTH NEW RIVER DR,SURF CITY,NC,28445,91032850050000000000,Package
TOTAL WINE-#608CAPITAL RD,6101 CAPITAL BLVD,RALEIGH,NC,27616,91923500000000000000,Package
TOTAL WINE-#613 PROMENADE,6341 BALLANTYNE PKWY  100,CHARLOTTE,NC,28277,70484112120000000000,Package
BOUDREAUX LOUISIANA KITCH,501 EAST 36TH ST,CHARLOTTE,NC,28205,70433198980000000000,Package
WORLD MARKET-#236 WILM,820 INSPIRATION DRIVE,WILMINGTON,NC,28405,91050992610000000000,Package
KITCHEN & COMPANY,111-B RIVER HILLS RD,ASHEVILLE,NC,28805,82829915500000000000,Package
TASTINGS WINE & BEER,312 EAST CENTER ST,LEXINGTON,NC,27292,33624372200000000000,Package
ICEHOUSE,2100 SOUTH BLVD  STE 100,CHARLOTTE,NC,28203,70437511280000000000,Package
TOTAL WINE-#605 WOODLAWN,1600 EAST WOODLAWN AV,CHARLOTTE,NC,28209,70429592920000000000,Package
TRIANGLE WINE COMPANY,3725 DAVIS DRIVE,MORRISVILLE,NC,27560,91975731000000000000,Package
DUNWELLZ,7110 BRIGHTON PARK DR,MINT HILL,NC,28227,70454515050000000000,Package
ZUZDA,502 W.MAIN ST.,BANNER ELK,NC,28604,82889841660000000000,Package
TOTAL WINE-#603HIGH PT RD,3503 HIGH POINT ROAD,GREENSBORO,NC,27407,33623523230000000000,Package
WISTERIA,108 EAST MEETING STREET,MORGANTON,NC,28655,97361057750000000000,Package
MAGGIE B'S WINE & SPECIAL,10-C SOUTH MAIN STEET,WEAVERVILLE,NC,28787,82864511110000000000,Package
ECO--TODD BAKER,120 OLD US HWY 70,SWANNANOA,NC,28278,0,Package
HUTCH AND HARRIS,424 W. FOURTH STREET,WINSTON-SALEM,NC,27101,33672113360000000000,Package
201 CENTRAL #477,5939 WEDDINGTON MONROE RD,WESLEY CHAPEL,NC,28104,70482126860000000000,Package
PINOCCHIO'S,518 S.SALISBURY AVE,SPENCER,NC,28159,70463688910000000000,Package
A SOUTHERN SEASON-CHAPEL,201 SOUTH ESTES DR,CHAPEL HILL,NC,27514,91992971330000000000,Package
COROLLA WINE CIGAR & GOUR,794-M SUNSET BLVD,COROLLA,NC,27927,25245360480000000000,Package
WORLD MARKET-#198 M'VILLE,590-K RIVER HIGHWAY,MOORESVILLE,NC,28117,70465817300000000000,Package
MAIN MCX PACKAGE STORE,BLD.#1231 HOLCOMB BLVD,CAMP LEJEUNE,NC,28547,91045114300000000000,Package
CAROLINA ALE HOUSE-FAYETTEVILLE,161 GLENSFORD DRIVE,FAYETTEVILLE,NC,28314,91086011140000000000,Package
GRAPE AND ALE 2,8521 EAST OAK ISLAND DR.,OAK ISLAND,NC,28461,91044808240000000000,Package
CAROLINA ALE HOUSE-CONCORD,8695 CONCORD MILLS BLVD,CONCORD,NC,28027,98222574290000000000,Package
THE CHOP SHOP,430 EAST 36TH ST,CHARLOTTE,NC,28212,70440045770000000000,Package
TOTAL WINE-#609 BIRKDALE,709 TOWNLEY ROAD,HUNTERSVILLE,NC,28078,70489561150000000000,Package
THE PHARMACY,110 EAST MOORE STREET,SOUTHPORT,NC,28461,91045755770000000000,Package
CAROLINA ALE HOUSE-JACKSONVILLE,1649 WESTERN BOULEVARD,JACKSONVILLE,NC,28546,71861906110000000000,Package
SANDHILLS WINERY,1057 SEVEN LAKES DRIVE,WEST END,NC,27376,91067329490000000000,Package
WORLD MARKET-#367 COSTWOLD,336 S SHARON AMITY RD,CHARLOTTE,NC,28211,0,Package
BIER GARDEN,46 HAYWOOD STREET,ASHEVILLE,NC,28801,82828500020000000000,Package
PJ'S FAST FOOD MARKET,237 ASHEVILLE HWY,SYLVA,NC,28779,82858696450000000000,Package
CAROLINA ALE HOUSE-UPTOWN,201 S COLLEGE STREET,CHARLOTTE,NC,28244,70494036000000000000,Package
WHOLE FOODS-SOUTH PARK,6610 FAIRVIEW ROAD,CHARLOTTE,NC,28210,0,Package
SLY GROG,45 S. FRENCH BROAD ST.,ASHEVILLE,NC,28801,82833501200000000000,Package
CRAFTY BEER GUYS,114 S OLD STATESVILLE RD,HUNTERSVILLE,NC,28078,70491965950000000000,Package
FOOD MATTERS MARKET,1 MARKET STREET,BREVARD,NC,28712,82888536630000000000,Package
CAROLINA ALE HOUSE GREENV,714 SE GREENVILLE BLVD,GREENVILLE,NC,27858,25231700050000000000,Package
BLUE POST BILLIARDS,15 SOUTH WATER ST,WILMINGTON,NC,28401,91034311410000000000,Package
ZILLIE'S ISLAND PANTRY,538 BACK ROAD,OCRAKOKE,NC,27960,25292890360000000000,Package
BLANCHARD STORE,5721 CARMEL RD,CHARLOTTE,NC,28226,70454258980000000000,Package
FENWICKS,511 PROVIDENCE ROAD,CHARLOTTE,NC,28207,70433327500000000000,Package
SALISBURY WINE SHOP,106 SOUTH MAIN STREET,SALISBURY,NC,28144,70463651510000000000,Package
STEAK STREET RESTAURANT,3916 SEDGEBROOK ST,HIGH POINT,NC,27265,33684102220000000000,Package
EAST WAKE WINE & CRAFT,1001 WIDEWATERS PARKWAY,KNIGHTDALE,NC,27545,91951850250000000000,Package
DIXIE GRILL,116 MARKET STREET,WILIMINGTON,NC,28401,0,Package
TACO MAC- SOUTH PARK,4625 PIEDMONT ROW DR  100,CHARLOTTE,NC,28210,70423180610000000000,Package
MAC'S SPEED SHOP,19601 LIVERPOOL PARKWAY,CORNELIUS,NC,28031,70489235540000000000,Package
BREAKAGE-NIGHT SHIFT,4701 STOCKHOLM COURT,CHARLOTTE,NC,28273,0,Package
MAC'S SPEED SHOP & BBQ,2511 SOUTH BLVD,CHARLOTTE,NC,28202,70452262270000000000,Package
BLEACHERS SPORTS BAR,3021 SPRING GARDEN STREET,GREENSBORO,NC,27403,33628551010000000000,Package
LUPIE'S CAFE-AT THE LAKE,101-D SOUTH OLD STATESVILLE RD,HUNTERSVILLE,NC,28078,70494839590000000000,Package
WHOLE FOODS-WILMINGTON,3804 OLEANDER DR,WILMINGTON,NC,28403,91045880400000000000,Package
CAROLINA ALE HOUSE-BRIER,7981 SKYLAND RIDGE PKWY,RALEIGH,NC,27617,91995742000000000000,Package
STELLA BREW,1305 S HAWTHORNE RD,WINSTON-SALEM,NC,27103,33672593000000000000,Package
CREEKSIDE BEVERAGE & GIFTS,103 MARINA DRIVE,NEW BERN,NC,28560,25267289800000000000,Package
FM-#19 PINEVILLE,7625 PINEVILLE MATTHEWS R,PINEVILLE,NC,28226,70454118820000000000,Package
CITY BEVERAGE CO.-WINSTON,915 BURKE STREET,WINSTON SALEM,NC,27101,33672227740000000000,Package
HICKORY TAVERN-BALLANTYNE,12210 COPPER WAY,CHARLOTTE,NC,28277,70429590090000000000,Package
LIGHTHOUSE BEER&WINE-WRIG,220 CAUSEWAY DRIVE,WRIGHTSVILLE BEAC,NC,28480,91025686220000000000,Package
CAROLINA ALE HOUSE-WILMIN,COLLEGE RD,WILMINGTON,NC,27884,91982731300000000000,Package
HOLIDAY TRAV-L-PARK,9102 COAST GUARD ROAD,EMERALD ISLE,NC,28594,25235422500000000000,Package
MAESTRO'S BAR & BISTRO,207 JOHNSTON STREET,PINEVILLE,NC,28134,70488921100000000000,Package
BT'S BURGER JOINT-ASHEVILLE,33 TOWN SQ. BLVD,ASHEVILLE,NC,28803,82865184810000000000,Package
OFFICE PUB,2826 RAEFORD,FAYETTEVILLE,NC,28303,91048699630000000000,Package
GRAPES & HOPS,5389 RAMSEY ST,FAYETTEVILLE,NC,28311,91082287000000000000,Package
ORGANIC MARKET PLACE,1012 S. NEW HOPE ROAD,GASTONIA,NC,28054,70486446640000000000,Package
PIGGLY WIGGLY-#33 KINSTON,2202 US US HWY NORTH,KINSTON,NC,28501,25252219530000000000,Package
HARRIKAS BEER HAUS,911 CEDAR POINT BLVD.,CEDAR POINT,NC,28584,25235479110000000000,Package
CAROLINA ALE HOUSE-WAKE,11685 NORTH PARK DRIVE,WAKE FOREST,NC,27568,91955686660000000000,Package
BREEZE THRU,40374 HWY 12,AVON,NC,27915,25299533470000000000,Package
THE WESTVILLE PUB,777 HAYWOOD RD.,ASHEVILLE,NC,28806,82822597820000000000,Package
DRAGONFLY WINE MARKET,101 WEST WARREN ST,SHELBY,NC,28150,70446635780000000000,Package
9 DOWNTOWN,9 SOUTH FRONT STREET,WILMINGTON,NC,28401,60720627030000000000,Package
SWEET T'S,1211 DUCK RD,DUCK,NC,27949,25248023260000000000,Package
J MCCROSKEY IRISH PUB AND GRILL,1423 29TH AVE DRIVE N.E.,HICKORY,NC,28601,82885535550000000000,Package
CAROLINA ALE HOUSE-RALEIG,4512 FALLS OF NEUSE RD,RALEIGH,NC,27609,91943197770000000000,Package
CAROLINA ALE HOUSE-DURHAM,3911 DURHAM CHAPEL HILL BLVD,DURHAM,NC,27707,91949020010000000000,Package
NORTH DURHAM MOBIL,5100 GUESS ROAD,DURHAM,NC,27712,91947135150000000000,Package
US SUSHI,8225 UNIVERSITY CITY BLVD,CHARLOTTE,NC,28213,70459837880000000000,Package
WOODLAND RESTAURANT & LOUNGE,104 E MAIN STREET,WOODLAND,NC,27897,25258733510000000000,Package
THE STOCK-AIDE GENERAL,107-G BUDLEIGH ST,MANTEO,NC,27954,25247340330000000000,Package
POE HOUSE,105 1ST AVENUE,HENDERSONVILLE,NC,28739,82857721520000000000,Package
NEW ORLEANS BAR AND GRILL,4312 BIG TREE WAY,GREENSBORO,NC,27406,33631553510000000000,Package
42 CRAFT BEVERAGE,5533 HWY 42 WEST,GARNER,NC,27529,99604565110000000000,Package
TACO MAC- UNIVERSITY,517 UNIVERSITY CENTER BLV,CHARLOTTE,NC,28262,70471770830000000000,Package
METRO WINES,169 CHARLOTTE ST,ASHEVILLE,NC,28801,82857595250000000000,Package
JONI ARTISANAL WINE AND BEER-ASHEVI,8 TOWN SQUARE BLVD,ASHEVILLE,NC,28803,82865182450000000000,Package
CAROLINA ALE HOUSE-CARY,2240 WALNUT STREET,CARY,NC,27511,91985494440000000000,Package
LONGNECKS,5145 US HIGHWAY 25/70,MARSHALL,NC,28753,82864904000000000000,Package
201 CENTRAL #476,13108 EASTFIELD RD,CHARLOTTE,NC,28269,70487528920000000000,Package
KATY'S GOOD EATS,1052-1054 SOUTH COLLEGE R,WILMIGNTON,NC,28403,91939552890000000000,Package
TOTAL WINE-#612 UNCC,440 EAST MCCULOGH DR,CHARLOTTE,NC,28062,70471410400000000000,Package
DUCKS GRILL AND BAR,1207-C GUM BRANCH RD,JACKSONVILLE,NC,28540,91045591280000000000,Package
PINKY'S WESTSIDE GRILL,1600 WEST MOOREHEAD ST,CHARLOTTE,NC,28208,70433204020000000000,Package
COASTAL PROVISIONS MARKET,1 OCEAN BLVD,SOUTHERN SHORES,NC,27949,25248000230000000000,Package
Leqacy Data-DiLorenzo-Penke,8711 J St,Omaha,NE,681270000,0,Package
JOE CANAL'S(MILLVILLE),2213 N. SECOND STREET,MILLVILLE,NJ,08332,8563274440,Package
CIRCLE LIQUOR STORE,1 MAC ARTHUR CIRCLE,SOMERS POINT,NJ,08244,6099276422,Package
CANAL'S LIQUOR (BERLIN),ROUTE 73 & HARKER AVENUE,BERLIN,NJ,08009,8567531881,Package
BREWSTER FINE WINE/LIQUOR,690 S. BREWSTER ROAD,VINELAND,NJ,08360,8566901188,Package
JOE CANAL'S (FIRE ROAD),3119 FIRE ROAD,EGG HARBOR TWP,NJ,08234,6095691133,Package
JOE CANAL'S (BHP-EHT),6036 BLACK HORSE PIKE,EGG HARBOR TWP,NJ,08232,6096413285,Package
COFFEE'S TAVERN,4423 WHITE HORSE PIKE,ELWOOD,NJ,08217,6095675565,Package
GREENS LIQUOR 26 (NJ AVE),2601 NEW JERSEY AVE,WILDWOOD,NJ,08260,6097299463,Package
JUNGLE JIMS FRUIT MARKET,5440 DIXIE HIGHWAY,FAIRFIELD,OH,45013,15136746000,Package
FRAZE PAVILION,675-95 LINCOLN PARK BLVD,KETTERING,OH,45429,9372963300,Package
JUNGLE JIM'S EASTGATE,4450 EASTGATE SOUTH DR,CINCINNATI,OH,45245,15134515000,Package
LE DOUX,116-118 W MAIN ST 1ST FL,TROY,OH,45373,9378751238,Package
FLAT IRON,129 E NATIONWIDE BLVD,COLUMBUS,OH,432152533,16144610033,Package
SOHO KITCHEN & BAR,1889 WEST 25TH ST,CLEVELAND,OH,44113,10000000000,Package
KROGER H 575 PORTSMOUTH,811 GAY ST,PORTSMOUTH,OH,456624118,17403548621,Package
FELICE,12502 LARCHMERE AVE,CLEVELAND,OH,44120,12167910918,Package
COST PLUS 110 CANTON,5527 DRESSLER ROAD,CANTON,OH,44720,3303050990,Package
MENU 6/JEZABEL'S,12718 LARCHMERE AVE,CLEVELAND,OH,44120,2167020785,Package
COST PLUS 108 DUBLIN,5720 BRITTON PKWY,DUBLIN,OH,430161212,16147179400,Package
CASHMERE CRICKET,2235 FRONT STREET,CUYAHOGA FALLS,OH,44221,13308146534,Package
ANDOUILLE,1329 US HIGHWAY 52,NEW RICHMOND,OH,45157,15135530482,Package
BRICK-HOUSE TAVERN,581 HOWE ROAD,CUYAHOGA FALLS,OH,44224,13309206244,Package
CRYSTAL KEG BAR & GRILL,7936 YORK ROAD,NORTH ROYALTON,OH,44133,14408428056,Package
BATTISTE & DUPREE CAJUN,1992 WARRENSVILLE CTR,SOUTH EUCLID,OH,44121,2163813341,Package
PLAIN FOLK CAFE,10177 SR.RT.132,HARLAND,OH,45162,15133835275,Package
BARLEY HOPSTERS,43-45 N SANDUSKY ST,DELAWARE,OH,430151925,17404174250,Package
TINSLEYS IGA SUPERMARKET,8793 RD 239,LAKEVIEW,OH,43331,19378434205,Package
REMKE  HYDE PARK,3872 PAXTON AVE,HYDE PARK,OH,45209,15136195454,Package
GIANT EAGLE #632 CALC,15937 S.R. 170,EAST LIVERPOOL,OH,43920,13855220,Package
OLD HICKORY BAR-B-QUE,4029 N MAIN ST,DAYTON,OH,45405,9372762002,Package
GIANT EAGLE 5861 MONTROSE,3750  WEST MARKET STREET,FAIRLAWN,OH,44333,13306661880,Package
LEHR'S MEATS,740 MAIN ST,MILFORD,OH,45150,15138313411,Package
COST PLUS 123 OLENTANGY,1655 OLENTANGY RIVER RD,COLUMBUS,OH,432121452,16142975925,Package
COLONIAL WINE & BEVERAGE,8389 MAYFIELD ROAD/MAYWOO,CHESTERLAND,OH,44026,4407297303,Package
CHUCK'S FINE WINE,23 BELL STREET,CHAGRIN FALLS,OH,44022,4402477534,Package
WALES ROAD ONE STOP,704 WALES ROAD NE,MASSILLON,OH,44646,13308371055,Package
COST PLUS 115 MAYFIELD,1565 GOLDEN GATE PLAZA,MAYFIELD HTS,OH,44124,4404499297,Package
BRICK HOUSE,5504 HARVARD,CLEVELAND,OH,44105,2162060501,Package
HYPERSONIC BEV & COFFEE,2841NOBLE RD STE B,CLEVELAND HTS,OH,44121,12162185151,Package
WINERAK MARKET,2336 MAPLE AVE,ZANESVILLE,OH,437012029,17404546333,Package
NORTH COURT BEVERAGE,998 N. COURT ST.,MEDINA,OH,44256,3307221240,Package
AMERISTOP,1826 W FAIR AVE,LANCASTER,OH,431302365,17406546121,Package
HARBOR INN,1219 MAIN AVE.,CLEVELAND,OH,44113,2162413232,Package
WAREHOUSE BEVERAGE,4364 MAYFIELD RD.,SOUTH EUCLID,OH,44121,2163822400,Package
BAXTERS,205 SOUTH MAIN,AKRON,OH,44308,12346780761,Package
PARROT HEAD,16 MOHICAN ST,SHELBY,OH,44875,4193478088,Package
ANDERSON 41 TALMADGE  EFT,4701 TALMADGE/MONROE,TOLEDO,OH,43623,4194733232,Package
COST PLUS 124 EASTON,3770 EASTON MARKET,COLUMBUS,OH,432196025,16144715042,Package
RUSSO'S RESTAURANT,4895 STATE ROAD,CUYAHOGA FALLS,OH,44264,3309232665,Package
OZZIES BUTTS & BREWS,2348 COLUMBUS ROAD,CANTON,OH,44705,13304560576,Package
COST PLUS 109 N OLMSTED,26145 GREAT NORTHERN BLVD,NORTH OLMSTED,OH,44070,4407346053,Package
WINE MERCHANT  THE,540 S MAIN ST UNIT A,FINDLAY,OH,45840,4194240391,Package
VINO BELLISSIMA WINE SHOP,743 B SHAWNEE RD,LIMA,OH,45805,6142027424,Package
J GUMBOS,108 N MAIN ST,BALTIMORE,OH,431051210,17408622586,Package
ROOT CELLAR,7699 MONTGOMERY ROAD,CINCINNATI,OH,45236,15139844111,Package
ROYAL PARK BEVERAGE,12770 ROYALTON ROAD,NORTH ROYALTON,OH,44133,4405828766,Package
AVENUE WINE SHOP,1728 CLEVELAND AVE. NORTH,CANTON,OH,44703,3304548108,Package
BUZZBIN,339 CLEVELAND AVE NW,CANTON,OH,44708,13308447090,Package
FAT FISH BLUE,6140 LEVIS COMMONS,PERRYSBURG,OH,43551,4199313474,Package
ANDERSON 42 MAUMEE    EFT,507 ILLINOIS AVE/FORD,MAUMEE,OH,43537,4198912620,Package
HILLS & DALES BEVERAGE DT,4641 HILLS & DALES RD NW,CANTON,OH,44708,3304929463,Package
MANOR WINE CELLAR LLC,5544 AIRWAY RD,DAYTON RIVERSID,OH,45431,9372545556,Package
JUNGLE JIM'S BACKROOM,4450 EASTGATE BLVD SOUTH,EASTGATE,OH,45245,0,Package
PARTY SHOP-WOOSTER,677-79 PORTAGE RD,WOOSTER,OH,44691,3302628846,Package
TABLE 44,610 MONROE/HURON,TOLEDO,OH,43604,4197250044,Package
PIT STOP DRIVE THRU,1120 E CANAL ST,NELSONVILLE,OH,457641320,17407534744,Package
CATAWBA MOORINGS{BR}{SE},2313 N EAST CATAWBA RD,PORT CLINTON,OH,43452,4197974775,Package
ANDERSONS GENERAL    BEER,7000 BENT TREE BLVD,COLUMBUS,OH,432354981,16147669500,Package
PRIMO'S DELI,1707 WOOSTER AVE.,AKRON,OH,44320,3307459056,Package
SHOREGATE BEVERAGE & LIQU,255 SHOREGATE MALL,WILLOWICK,OH,44095,4409442466,Package
GIANT EAGLE 6538 LANCASTE,1394 ETY SHOPS WAY,LANCASTER,OH,43130,17406544765,Package
ZIP-IN-DRIVE THRU,4750 S. CHARLESTON PIKE,SPRINGFIELD,OH,45502,19373233891,Package
302 C/O,302 S MAIN,ADA,OH,45810,4196348671,Package
COUNTRY FRESH MARKET,8315 BEECHMOUNT AVE,CHERRY GROVE,OH,45255,15134749167,Package
LA CUVEE  (TASTE),2317 LEE RD.,CLEVELAND HTS,OH,44118,2169323170,Package
DAIRY FAMILY,184 W 5TH AVE,COLUMBUS,OH,432013272,16142940544,Package
PORTAGE LAKES BREWING CO,503 PORTAGE LAKES DRIVE,AKRON,OH,44319,13306442337,Package
SOUTH SIDE SIX-B GREEN,737 S MAIN ST,BOWLING GREEN,OH,43402,4193528639,Package
VINTAGE ESTATE WINE&BEER,7317 SOUTH AVE.,BOARDMAN,OH,44512,3306298080,Package
CHIEFS SUPER 1 CELINA,221 SUMMIT ST,CELINA,OH,45822,14195864268,Package
HILLS MARKET,7860 OLENTANGY RIVER RD,WORTHINGTON,OH,432351354,16148463220,Package
WESTEND TAVERN FINDLAY,506 W MAINCROSS,FINDLAY,OH,45840,4241640,Package
WESLEYS BAR & GRILL,1201-03 ADAMS/12TH STREET,TOLEDO,OH,43604,4192553333,Package
IRON HORSE SALOON,13468 MAIN MARKET RD,BURTON,OH,44021,0,Package
KROGER 915-D ANDERSON,7580 BEECHMONT AVE,ANDERSON TWP,OH,45255,15132334400,Package
GIANT FOOD - HAVERTOWN,116 W. TOWNSHIP LINE ROAD,HAVERTOWN,PA,19083,6104491161,Package
FRANK AUSTIN,3905 RIDGE PIKE,COLLEGEVILLE,PA,19426,6104899432,Package
WEGMANS WARRING 036,1405 MAIN STREET,WARRINGTON,PA,18976,2159183900,Package
GIANT FOOD #6447,2300 LINGLESTOWN RD,HARRISBURG,PA,171109534,7175450489,Package
BREWER'S OUTLET (GERMAN),7401 GERMANTOWN AVEN,PHILADELPHIA,PA,19119,2152471265,Package
PORTERS PUB,700 NORTHAMPTON ST,EASTON,PA,18042,6102506561,Package
PARKTOWNE BEVERAGE,310 N. LEWIS RD.,ROYERSFORD,PA,19468,6109480970,Package
SAMPLES-OFF PREMISE PLAN,710 EAST MAIN STREET,NORRISTOWN,PA,19401,6102750285,Package
BLUE COMET BAR & GRL,106 S. EASTON ROAD,GLENSIDE,PA,19038,2155729780,Package
HARLEYSVILLE BEV INC,337 MAIN ST,HARLEYSVILLE,PA,19438,2152569699,Package
FLORY DISTRIBUTING CO,725 S BROAD ST,LITITZ,PA,17543,7176262269,Package
EPHRATA BEVERAGE MART,36 N READING RD,EPHRATA,PA,17522,7177336933,Package
WEGMANS #46 MALVERN,50 FOUNDRY WAY,MALVERN,PA,19355,4849139600,Package
EXTON BEVERAGE,310 E LINCOLN HWY,EXTON,PA,19341,6103637020,Package
BIG TOP,1555 EASTON RD.,ROSLYN,PA,19001,2156595445,Package
HIGH STREET CAFE,322 SOUTH HIGH ST,WEST CHESTER,PA,19381,6106967435,Package
BREWERS OUTLET 202,257 WILMINGTON PK,CHADDSFORD,PA,19317,6104598228,Package
MORGANTOWN BEVERAGE INC.,3740 MAIN STREET,MORGANTOWN,PA,19543,6102860020,Package
AMBLER BEVERAGE EXCHANGE,259 EAST BUTLER AVE,AMBLER,PA,19002,2674704854,Package
GIANT #6116 (DILWORTH PL),1393 DILWORTH CROSSING,WEST CHESTER,PA,19382,6104312351,Package
SHANGY BEVERAGE,40 E MAIN STREET,EMMAUS,PA,18049,6109671701,Package
BEER MART - READING,301-307 MORGANTWN RD,READING,PA,19611,6103767341,Package
BELLA VISTA,755 SOUTH 11TH STREET,PHILADELPHIA,PA,19147,2156276465,Package
LITTLE BEVERAGE DIST,1224 LANCASTER AVE,COLUMBIA,PA,17512,7176842714,Package
WAYWOOD BEVERAGE,624 MILLERS HILL,KENNETT SQUARE,PA,19348,6104445222,Package
NEWTOWN SUDS,3517 W. CHESTER PIKE,NEWTOWN SQUARE,PA,19073,2679928291,Package
SILVER SPRING BEVERAGE,6485 CARLISLE PIKE,MECHANICSBURG,PA,170552377,7176970020,Package
WEGMANS #45,6416 CARLISLE PIKE  ST 20,MECHANICSBURG,PA,17050,0,Package
WEGMANS COLLEGE 043,600 COMMERCE DRIVE,COLLEGEVILLE,PA,19426,4849021500,Package
TOWAMENCIN BEVERAGE,1550 SUMNEYTOWN PIKE,KULPSVILLE,PA,19443,2153622358,Package
THE BATDORF RESTAURANT,245 MAIN ST,ANNVILLE,PA,17003,7178670113,Package
NORTH END BEVERAGE,1474 N CHARLOTTE ST.,POTTSTOWN,PA,19464,6109701877,Package
FENICE CREOLO,902 VILLAGE AT ELAND,PHOENIXVILLE,PA,19460,6109333993,Package
ROOT BEER DIST,537 W MAIN ST REAR,MOUNT JOY,PA,17552,7176534100,Package
BELL BEVERAGE,2809 S. FRONT STREET,PHILADELPHIA,PA,19148,2154680222,Package
MR DUNDERBAKS,121 LV MALL,WHITEHALL,PA,18052,6102644963,Package
NIPPERS,2453 W. MAIN STREET,NORRISTOWN,PA,19401,6106307818,Package
FIBBERS BEVERAGE,198 SOUTH MACDADE BLVD.,DARBY,PA,19023,6102376662,Package
BOOM A RANG BEVERAGE,2604 DEARBORN ST,EASTON,PA,18042,6102528241,Package
BRESKI BEVERAGE,1170 EISENHOWER BLVD.,HARRISBURG,PA,171112312,7179394831,Package
CHAR'S,1829 N FRONT ST,HARRISBURG,PA,17102,7172134002,Package
DENVER BEER DIST INC,4 MAIN ST,DENVER,PA,17517,7173362277,Package
BREWER'S BAR & GRILL,101 S. 3RD AVENUE,WEST READING,PA,19611,6103758760,Package
BEER KING,2957 N 7TH ST,HARRISBURG,PA,171102109,7172342964,Package
GLENN MILLERS BEER & SODA,1029 MARKET STREET,LEMOYNE,PA,170431414,7177372363,Package
EAST FALLS BEV,4024 RIDGE AVEUE,PHILADELPHIA,PA,19129,2158445600,Package
BENSALEM BEER & SODA,1919 STREET RD,BENSALEM,PA,19020,2156394790,Package
BEVERAGE EXPRESS,1021 RITNER HIGHWAY,CARLISLE,PA,17013,7172412337,Package
BEER & BEVERAGE SHOPPE,241 W ROSEVILLE RD SUITE1,LANCASTER,PA,17603,7175196670,Package
SIX PACK STORE (M-F),7015 ROOSEVELT BLVD.,PHILADELPHIA,PA,19149,2153386384,Package
SUPER BEV. WAREHOUSE,5042 EDGMONT AVE,BROOKHAVEN,PA,19015,6108768000,Package
BEER YARD,218 E LANCASTER AVE,WAYNE,PA,19087,6106883431,Package
BOBS MONTGOMERY BEER,408 DOYLESTOWN PIKE,MONTGOMERYVILLE,PA,18936,2158559191,Package
NEWTOWN BEER STORE,10 WEST CENTRE AVENUE,NEWTOWN,PA,18940,2155796337,Package
UNION STATION GRILL,173 S 4TH ST,COLUMBIA,PA,17512,7176841111,Package
NORTH PENN BEV.INC,39 WASHINGTON AVENUE,SOUDERTON,PA,18964,2157231147,Package
EPPS BEVERAGE,80 W RIDGE PIKE,ROYERSFORD,PA,19468,6104897555,Package
FRENCH QUARTER BISTRO,215 MAIN ST.,ROYERSFORD,PA,19468,6107927292,Package
BRASS RAIL BEVERAGE INC,2828 HORSESHOE PK,CAMPBELLTOWN,PA,17010,7178389200,Package
BREWERS OUTLET BUTLER,111 BUTLER AVE,LANCASTER,PA,17601,7173926882,Package
TANGIER'S,1801 LOMBARD ST.,PHILADELPHIA,PA,19146,2157325006,Package
BEER WORLD - TMI DIST,1409 EASTON RD,ROSLYN,PA,19001,2156590891,Package
DOC'S WORLD OF BEERS,701 CATHEDRAL ROAD,PHILADELPHIA,PA,19128,2154824338,Package
EMPLOYEE SALES,660 DELP RD,LANCASTER,PA,17601,7175699200,Package
SHIPPENSBURG BEVERAGE,PO BOX 680,SHIPPENSBURG,PA,172570680,7175322337,Package
KING PIN BEVERAGES LLC,6750 IROQUOIS TRL UNIT 12,ALLENTOWN,PA,18104,6103980500,Package
WHEATLAND DIST,1701 COLUMBIA AVE,LANCASTER,PA,17603,7173975121,Package
SOUTHERN SPIRITS DISCOUNT BEV,9989 CHARLOTTE HWY,FORT MILL,SC,29715,8035488888,Package
FRUGAL MAC DOOGAL'S,3630 FESTIVAL DR,FORT MILL,SC,29715,8035486634,Package
PUBLIX #1412,8356 CHARLOTTE HWY,INDIANLAND,SC,29707,8035489000,Package
PUBLIX #1419,928 GOLD HILL RD,FORT MILL,SC,29708,8035487900,Package
STATELINE ELITE,9804 A CHARLOTTE HWY,FORT MILL,SC,29707,7046341726,Package
HOUSE SALES,110 CARMEL RD,ROCK HILL,SC,29730,8033241180,Package
Non-retail sales,P.O. BOX 10821,Rock Hill,SC,,0,Package
LITTLE GIANT #6,4001 CELANESE RD,ROCK HILL,SC,29730,8033277250,Package
THE SOUTHERN,150 3RD AVENUE SOUTH,NASHVILLE,TN,372010000,6152569596,Package
DISCOUNT TOBACCO & BEVERAGES,620 S JEFFERSON AVE STE 106,COOKEVILLE,TN,385010000,9313721272,Package
JACK DANIELS-OP,2800 OPRYLAND DRIVE,NASHVILLE,TN,372140000,8891000,Package
COST PLUS #326,2615 MEDICAL CENTER PKWY #2400,MURFREESBORO,TN,371290000,6158981393,Package
ZIM CORP % MAC DOOGAL'S,701 DIVISION ST.,NASHVILLE,TN,372030000,2423863,Package
COST PLUS #300,6728 CHARLOTTE PIKE,NASHVILLE,TN,372090000,3560160,Package
COST PLUS WORLD MARKET #320,2200 HAMILTON PLACE BLVD.,CHATTANOOGA,TN,37421,0,Package
TWO BOOTS PIZZA,1925 BROADWAY,NASHVILLE,TN,372030000,6153404343,Package
POUR VOUS BEER MARKET,263 INDIAN LAKE BLVD,HENDERSONVILLE,TN,370750000,6155907094,Package
4 WAY MARKET,1401 FATHERLAND STREET,NASHVILLE,TN,372060000,6152280024,Package
4 STOP MARKET II,1401 WOODLAND ST,NASHVILLE,TN,372060000,2264831,Package
MANCHESTER TOBACCO & BEVERAGE,1854 HILLSBORO BLVD,MANCHESTER,TN,373550000,9317280049,Package
COST PLUS #342,1006 ANDREWS RUN,HENDERSONVILLE,TN,370750000,0,Package
MIDTOWN BEVERAGES & MORE,1608 CHURCH ST,NASHVILLE,TN,372030000,3299214,Package
CRAFT BREWED MARKET,2502 FRANKLIN PIKE,NASHVILLE,TN,372040000,6156635676,Package
DRIFTERS,1008 WOODLAND STREET SUITE-B,NASHVILLE,TN,372060000,6152622776,Package
BEER DEPOT,2002 E MAIN STREET,MURFREESBORO,TN,371300000,6158902337,Package
MT JULIET BEER COMPANY,11125 LEBANON PIKE,MT JULIET,TN,371220000,6157732124,Package
EXPRESS FOODMART,1101 WOODLAND ST,NASHVILLE,TN,372060000,2620203,Package
WHSE. BREAKAGE,LIPMAN BROS.  INC.,NASHVILLE,TN,372100000,0,Package
HOLIDAY BEER & CIGARS,110 ROYAL OAKS BLVD,FRANKLIN,TN,370670000,6157910602,Package
TREMONT TAVERN,1203 HIXSON PIKE,CHATTANOOGA,TN,37405,0,Package
THE STONE FOX,712 51ST AVENUE NORTH,NASHVILLE,TN,372090000,6155541984,Package
WHOLE FOODS MARKET,4021 HILLSBORO PIKE,NASHVILLE,TN,372150000,6154405100,Package
ENZOS MARKET,1501 LONG STREET,CHATTANOOGA,TN,37408,0,Package
ELEMENTAL,313 MANUFACTURER'S ROAD,CHATTANOOGA,TN,37405,0,Package
96 TOBACCO & BEER DEPOT,2015-A LASCASSAS PIKE,MURFREESBORO,TN,371300000,9018329168,Package
DOLLARWAY TOBACCO & BEER,136 BEAR CREEK PK. BLD G,COLUMBIA,TN,384010000,9312235867,Package
KWIK SAK #625,2804 WEST END AVENUE,NASHVILLE,TN,372030000,4248448,Package
CRAWDADDY'S,53 WEST BROAD ST,COOKEVILLE,TN,385030000,9315264660,Package
CORNER PUB FRANKLIN,1916 COLUMBIA AVE,FRANKLIN,TN,370643922,6155957447,Package
H G HILLS #86,2498 HWY 49-E,PLEASANT VIEW,TN,371460000,6157468214,Package
CHAPPY'S SEAFOOD RESTAURANT,1721 CHURCH STREET,NASHVILLE,TN,372030000,6153229932,Package
GREENBRIER QUICK STOP,2300 HWY 41 SOUTH,GREENBRIER,TN,370730000,6158632084,Package
STONES RIVER BEVERAGE MART,208 NO THOMPSON LANE STE A,MURFREESBORO,TN,371290000,8954449,Package
SAM'S DISCOUNT TOBACCO,4010 HILLSBORO PIKE,NASHVILLE,TN,372150000,6156864782,Package
BEER AND CIGAR EMPORIUM,115 FAST LANE SUITE-2,BAXTER,TN,385440000,9318582337,Package
CAMILLE'S MARKET,1145 GALLATIN AVE,NASHVILLE,TN,372060000,0,Package
STOGIE'S ALES AND FINE CIGARS,1800 CAROTHERS PARKWAY,BRENTWOOD,TN,370640000,6153777727,Package
B & E CONVIENENCE STORE,531 MARKET ST,DAYTON,TN,37321,0,Package
EASY IN-N-OUT,3800 HUNTERS POINT PIKE,LEBANON,TN,370870000,6154195466,Package
LUPI'S,9453 BRADMORE LANE  SUITE 109,CHATTANOOGA,TN,37363,0,Package
GRAYMERE CLUB,2100 COUNTRY LANE,COLUMBIA,TN,384010000,9313884455,Package
NASHVILLE MARRIOTT HOTEL,600 MARRIOTT DR,NASHVILLE,TN,372140000,8899300,Package
STOP & SHOP TOBACCO & BEER,73 WHITE BRIDGE ROAD,NASHVILLE,TN,372050000,6156799012,Package
WHSE. UNSALEABLE,LIPMAN BROS.  INC.,NASHVILLE,TN,372100000,0,Package
RICK'S MARKET,605 SOUTH 19TH STREET,NASHVILLE,TN,372060000,6155930778,Package
SUPERMART II,501 GARRET COURT,GALLATIN,TN,370660000,9319808189,Package
JIMMY G'S CAJUN SEAFOOD,307 N SAM HOU PKWY E,HOUSTON,TX,77060,2819317654,Package
TIBIDEAUX'S NEW ORLEANS KITCHEN,5555 CALDER AVE  STE B,BEAUMONT,TX,77706,4093471256,Package
HOUSTON BEER FESTIVAL,900 SMITH,HOUSTON,TX,77002,8327972514,Package
KROGER #950,1600 N. 16TH STREEET,ORANGE,TX,776300000,4098838521,Package
SCHILLECI'S NEW ORLEANS,9595 SIX PINES DR,THE WOODLANDS,TX,77380,2814194242,Package
FLYING SAUCER DRAUGHT EMP,15929 CITY WALK,SUGAR LAND,TX,77479,7132289472,Package
SPEC'S LIQUOR #31,5876 EASTEX FRWY.,BEAUMONT,TX,77708,4098355931,Package
SPEC'S LIQUOR #00,2410 SMITH,HOUSTON,TX,77006,7135268787,Package
GOODY GOODY #91 WHOLESALE,1950 FM 407,HIGHLAND VILLAGE,TX,75077,0,Package
SPECS #075,2500 E CENTRAL TX EXPWY,KILLEEN,TX,76543,616587254,Package
H.E.B. PANTRY #589,4800 HWY 365,PORT ARTHUR,TX,77642,4097221369,Package
KHON'S,2808 MILAM,HOUSTON,TX,77006,7135237775,Package
WORLD MARKET #101,1620 LAKE WOODLANDS DRIV,THE WOODLANDS,TX,77380,2814198300,Package
WORLD MARKET #228,239 CURTIS MATHIS WAY,ARLINGTON,TX,760180000,540182817,Package
H.E.B. PANTRY #048,3025 N DOWLEN ROAD,BEAUMONT,TX,77706,4098662007,Package
SPECS #107,6816 SLIDE ROAD,LUBBOCK,TX,79400,676141806,Package
KROGER #398,2750 LEAGUE CITY PARKWAY,LEAGUE CITY,TX,77573,2815212560,Package
H.E.B. #092,6106 N. NAVARRO,VICTORIA,TX,77904,3615789891,Package
SPEC'S #139,24417 KATY FREEWAY,KATY,TX,77494,2813945780,Package
COST PLUS WORLD MKT #229,5319 FM 1960 W,HOUSTON,TX,77069,2818809777,Package
GUMBO BAR,2105 POSTOFFICE,GALVESTON,TX,77550,7135182009,Package
LITTLE DADDY'S GUMBO BAR,1516 FM 646W,LEAGUE CITY,TX,77573,4097448626,Package
KROGER #321,3100 HWY 35 SOUTH,ALVIN,TX,77511,2813883400,Package
SPECS #150,9500 N CENTRAL EXPWY #200,DALLAS,TX,75231,0,Package
HARLEY' CUT RATE LIQUOR,1302 LOOP 281 WEST,LONGVIEW,TX,756040000,765684214,Package
SPECS #061,4970 WEST HWY 290,AUSTIN,TX,787350000,366826512,Package
WISMER DISTRIBUTORS INC.,600 S. MAIN,BAYTOWN,TX,77520,7138694361,Package
TOTAL WINE SPIRITS BEER & MORE,9350 N CENTRAL EXWY,DALLAS,TX,75231,542702812,Package
SIGELS LIQUOR #4,3209 N FITZHUGH AVE,DALLAS,TX,752040000,350127214,Package
SWAMP'S,26440 FM 1093 SUITE 490,KATY,TX,77406,2812390833,Package
BELDEN'S,99 BRAESWOOD SQUARE,HOUSTON,TX,77096,7137235670,Package
S & K BEVERAGES,101 W SPRING CREEK PKWY,PLANO,TX,750230000,932101972,Package
DOC'S #185,7020 QUAKER AVENUE,LUBBOCK,TX,79423,796735806,Package
ACES HIGH PACKAGE STORE,319 S MAIN ST,WINONA,TX,75792,0,Package
ROBBIN EXPRESS,29601 ROBINSON RD STE A,CONROE,TX,77385,8325452578,Package
H.E.B. PANTRY #558,701 W PARKWOOD,FRIENDSWOOD,TX,77546,2819969967,Package
SPEC'S LIQUOR #39,4102 FM 762,RICHMOND,TX,77469,2812380776,Package
QUALITY LICENSING #1098,400 TINEY BROWNING BLVD,PORT LAVACA,TX,77979,3615536421,Package
ZACHARY'S CAJUN CAFE,716 KINGWOOD DR,KINGWOOD,TX,77339,12813592256,Package
CRAW DADDYS #2,414 STARR ST,CORPUS CHRISTI,TX,78401,883543361,Package
WORLD OF BEER,5005 S COOPER ST #183,ARLINGTON,TX,76017,765438817,Package
SPEC'S LIQUOR #5,8102 WESTHEIMER,HOUSTON,TX,77063,7136753425,Package
SPECS #060,5775 AIRPORT BLVD,AUSTIN,TX,787520000,366830512,Package
H.E.B. #23/618,5910 BABCOCK RD,SAN ANTONIO,TX,78240,2106416403,Package
GOODY GOODY #26,4701 COLLEYVILLE BLVD,COLLEYVILLE,TX,76034,644294972,Package
WORLD MARKET #218,7616 DENTON HIGHWAY,WATAUGA,TX,761480000,0,Package
HEB #491 CENTRAL MARKET,3815 WESTHEIMER,HOUSTON,TX,77027,7133861700,Package
SPEC'S LIQUOR #22,7034 FM 1960 RD E,HUMBLE,TX,77346,7138694361,Package
KALLIOPE'S PO BOY,2130 JEFFERSON,HOUSTON,TX,77003,7132228333,Package
SPEC'S LIQUOR #8,1640 S MASON RD,KATY,TX,77450,2813956262,Package
SPECS #062,10515 N MOPAC EXPWY,AUSTIN,TX,787350000,342689512,Package
PRIMOS CRAFT BEER,3233 N MESA SUITE 101,EL PASO,TX,79902,0,Package
HEB FOOD STORE #583,9100 WOODWAY DR,WOODWAY,TX,767120000,0,Package
KROGER #373,2301 RAYFORD ROAD,SPRING,TX,77386,8328130300,Package
WORLD MARKET #102,5500 GREENVILLE AVE,DALLAS,TX,752060000,0,Package
COST PLUS WORLD MKT #258,1001 W. BAY AREA,WEBSTER,TX,77598,2813161069,Package
FLYING SAUCER- GARLAND,4821 BASS PRO DRIVE,GARLAND,TX,75043,226072972,Package
GABRIEL'S LIQUOR & WINE,1309 LOOP 1604 NORTHWEST,SAN ANTONIO,TX,78258,2104928585,Package
WORLD OF BEER,23501 CINCO RANCH BLVD #B,KATY,TX,77494,3172130916,Package
HEB FOOD STORE #069,5313 SARATOGA,CORPUS CHRISTI,TX,78414,980099361,Package
SPEC'S LIQUOR #56,22508 HWY 249,HOUSTON,TX,77070,2813797383,Package
H.E.B. #32/623,9238 W LOOP 1604 NORTH,SAN ANTONIO,TX,78254,2109388357,Package
SPEC'S LIQUOR #55,14315 CYPRESS ROSEHILL RD,CYPRESS,TX,77429,2813732999,Package
SPEC'S LIQUOR #06,1023 BAY AREA BLVD,HOUSTON,TX,77058,2814869558,Package
WESTERN BEVERAGES LIQUOR,2809 E MAIN ST. STE 100,UVALDE,TX,78801,2102253044,Package
L&F DISTRIBUTORS,601 19TH ST. NORTH,CORPUS CHRISTI,TX,78408,0,Package
GOODY GOODY LIQUOR #41,9805 FM 1960 W BYPASS,HUMBLE,TX,77338,2814460763,Package
KROGER #014,12605 IH 45 NORTH,WILLIS,TX,77318,9368908028,Package
SPEC'S LIQUOR #67,5108 N. NAVARRO,VICTORIA,TX,77904,3615765400,Package
GOODY GOODY LIQUOR #40,2680 HWY 6 SOUTH,HOUSTON,TX,77082,2147656853,Package
SPEC'S LIQUOR #19,17410 NORTHWEST FREEWAY,HOUSTON,TX,770401002,7139838827,Package
SPEC'S LIQUOR #15,25044 IH 45 NORTH,SPRING,TX,77386,2813629131,Package
WORLD MARKET #080,1317 HWY 114 WEST,GRAPEVINE,TX,760510000,0,Package
SPEC'S LIQUOR #32,243 U FM 2094,KEMAH,TX,77565,8884335727,Package
SPECS DICORTES #068,5625 SO. PADRE ISLAND DR.,CORPUS CHRISTI,TX,78412,884888361,Package
PETERS CUT RATE #6,3202 7TH STREET,BAY CITY,TX,774140000,9792443517,Package
SPEC'S LIQOUR #53,8416 KATY FREEWAY,SPRING VALLEY,TX,77024,7134638111,Package
SPEC'S LIQUOR #23,5130 RICHMOND AVENUE,HOUSTON,TX,77056,8325182850,Package
GOOD TIME STORE #70,12900 EDGEMERE BLVD,EL PASO,TX,79925,282551512,Package
BROOKSHIRE BROS #9,5249 FRANZ ROAD,KATY,TX,77493,2813917051,Package
BROOKSHIRE BROTHERS #48,18535 FM 1488,MAGNOLIA,TX,77354,2812590166,Package
EXIT 73 BAR & GRILL,24714 IH 45N SUITE 101,SPRING,TX,77386,2819950486,Package
SPEC'S LIQUOR #16,196 SOUTH GULF FREEWAY,LEAGUE CITY,TX,77573,2813162140,Package
WORLD MARKET #213,1400 LOOP 288,DENTON,TX,762050000,0,Package
SPEC'S LIQUOR #1,1420 KINGWOOD DR,KINGWOOD,TX,77339,2813597115,Package
WORLD MARKET #135,4701 WEST FREEWAY,FORT WORTH,TX,761070000,0,Package
HYDE PARK MINI'S FOOD MART,4429 DUVAL STREET,AUSTIN,TX,78751,524421512,Package
COST PLUS WORLD MKT #324,17414 LA CANTERA PARKWAY,SAN ANTONIO,TX,78257,2106416052,Package
SPEC'S LIQUOR #30,1420 LOOP 336 WEST #100,CONROE,TX,77302,9364417161,Package
GOODY GOODY #10,14851 INWOOD ROAD,ADDISON,TX,750010000,765687214,Package
QUALITY LICENSING #330,9002 N. NAVARRO,VICTORIA,TX,77904,5125730041,Package
KROGER #308,11003 SHADOW CREEK PARKWAY,PEARLAND,TX,77584,4097400000,Package
RILEY EXPRESS,1827 RILEY FUZZEL RD 'B',SPRING,TX,77386,2812885366,Package
WORLD MARKET #252,2851 CRAIG DR,MCKINNEY,TX,750700000,0,Package
MARKET BASKET #17,864 MAGNOLIA,PORT NECHES,TX,776513712,4097271429,Package
LUKE SAN ANTONIO REST.,125 E. HOUSTON,SAN ANTONIO,TX,78205,2102275853,Package
GOODY GOODY #16 LTLE ELM,103 FM 423,LITTLE ELM,TX,750680000,0,Package
COST PLUS WORLD MKT #62,5125 RICHMOND,HOUSTON,TX,77056,7139638833,Package
RILEY LIQUOR,1827 RILEY FUZZELL RD,SPRING,TX,77386,8324036852,Package
ORLEANS SEAFOOD KITCHEN,20940 KATY FRWY SUITE G,KATY,TX,77449,2816460700,Package
SPANKY'S LIQUOR #1,1302 MAGNOLIA AVENUE,PORT NECHES,TX,776510000,4097277272,Package
D & Q MINI MART,806 RICHMOND AVENUE,HOUSTON,TX,77006,7135264451,Package
B.B. ROVER'S CAFE & PUB,12636 RESEARCH BLVD. #B10,AUSTIN,TX,78759,555121999,Package
WORLD OF BEER,5600 SMU BLVD,DALLAS,TX,75206,444448214,Package
SPEC'S LIQUOR #17,27620 HWY 249 STE B3,TOMBALL,TX,77375,2813516007,Package
TOTAL WINE SPIRITS BEER & MORE,5200 SOUTH HULEN STREET,FORT WORTH,TX,76132,795100301,Package
SPEC'S LIQUOR #109,18434 HWY 105 WEST,MONTGOMERY,TX,77356,9365825406,Package
RANDALLS BEV. CO. #2961,9660 WESTHEIMER,HOUSTON,TX,77063,7137830733,Package
SIGELS LIQUOR #5,15003 INWOOD ROAD,ADDISON,TX,750013737,350127214,Package
COST PLUS WORLD MKT #341,23010 HWY 281 NORTH,SAN ANTONIO,TX,78258,2104810145,Package
SPEC'S LIQUOR #12,14625 MEMORIAL DR,HOUSTON,TX,77079,2818709778,Package
WOODS FOOD MART,735 STUDEWOOD,HOUSTON,TX,77007,7138692906,Package
BROOKSHIRE BROTHERS #73,21005 EVA STREET,MONTGOMERY,TX,77356,9365978000,Package
SPEC'S LIQUOR #2,11990 WESTHEIMER,HOUSTON,TX,77077,2814970413,Package
SPECS #063,201 UNIVERSITY OAKS BLVD.,ROUND ROCK,TX,786640000,341906512,Package
SPEC'S LIQUOR #71,3902 BISSONET,HOUSTON,TX,77005,7138694361,Package
TRUELOVE MGMT LLC,1826 LAKE SHORE DR,WACO,TX,76708,577547512,Package
DIXIE DNCE/TEQUILA ROK/VAIN,234-36 CROCKET ST. INCL.260,BEAUMONT,TX,77701,4098337999,Package
GOODY GOODY #11,5285 HWY 121,THE COLONY,TX,750560000,765687214,Package
WORLD MARKET #184,3888 OAK LAWN AVE,DALLAS,TX,752190000,0,Package
KROGER #108,3541 PALMER HWY,TEXAS CITY,TX,775900000,4099483471,Package
SOLLEY'S NO. 3,15626 HWY 96 NORTH,BROOKELAND,TX,75931,4096982772,Package
H & H BEVERAGES,3394 REBECCA LN,ABILENE,TX,796060000,695708325,Package
LIQUOR MART,1501 NORTH ST,NACOGDOCHES,TX,75965,569193936,Package
H.E.B. 19/294,6580 FM RD 78,SAN ANTONIO,TX,78244,2106662022,Package
HILLS & DALES INC.,15403 WHITE FAWN,SAN ANTONIO,TX,78255,2106952307,Package
AB BEER & WINE,2305 HWY 276,ROCKWALL,TX,75032,722490972,Package
PETER'S CUTRATE LIQUOR #,2002 N BRAZOSPORT BLVD,FREEPORT,TX,775410000,4092335820,Package
SPECS #151,5930 W PARK #1400,PLANO,TX,75093,0,Package
PIZZA ITALIA,3023 THOUSAND OAKS STE101,SAN ANTONIO,TX,78247,2104948646,Package
H & M FOOD MARKET,3599 SPRING STUEBNER,SPRING,TX,77389,7133535894,Package
SPEC'S LIQUOR #29,10491 KUYKENDAHL,SPRING,TX,77381,2816819110,Package
HORIZON VISTA SUPERMARKETS,121 N KENAZO,HORIZON CITY,TX,79928,852229915,Package
SPEC'S WINES & SPIR #100,5219 DEZAVALA ROAD #100,SAN ANTONIO,TX,78249,2102253044,Package
WALGREENS #6857,950 STUDEMONT,HOUSTON,TX,77007,8473156803,Package
SPEC'S LIQUOR #52,3100 FM 528,WEBSTER,TX,77598,2816485473,Package
SPEC'S LIQUOR #40,4820 HWY 6 NORTH,HOUSTON,TX,77084,2816564100,Package
SPECS #155,1600 EASTCHASE PARKWAY,FORT WORTH,TX,76120,0,Package
FLOYDS CAJUN SEAFOOD,2290 IH-10 SOUTH,BEAUMONT,TX,77707,4098420686,Package
THE SHACK,16606 CYPRESS ROSEHILL RD,CYPRESS,TX,77429,8324053547,Package
WORLD MARKET #104,8700 PRESTON ROAD,PLANO,TX,750240000,0,Package
GOODY GOODY WHOLESALE,10741 KING WILLIAM DR,DALLAS,TX,752200000,0,Package
FOSSIL CREEK LIQUORS #6,304 SWISHER ROAD,LAKE DALLAS,TX,750650000,837394972,Package
SPECS #073,617 LAKE AIR DR,WACO,TX,767100000,0,Package
HEB #488 (PTLD),1600 WILDCAT DR,PORTLAND,TX,78374,643151361,Package
WORLD MARKET #205,6101 LONG PRAIRIE ROAD,FLOWER MOUND,TX,750280000,0,Package
H.E.B. #45/108,20935 HWY 281 NORTH,SAN ANTONIO,TX,78258,2104944208,Package
TWISTED SNIFTER,111 NORTH MAIN STREET,WEATHERFORD,TX,76086,550611817,Package
LAS COLINAS BEVERAGES,4000 N MACARTHUR,IRVING,TX,750380000,650050972,Package
SMOKERS' EXPRESS WINE & SPIRITS LLC,1050 N 16TH ST,ORANGE,TX,77630,8884335727,Package
COME AND TAKE IT,301 E LARKIN ST,ATHENS,TX,75751,264127903,Package
VANISHING POINT CAFE,2411 STRAND SUITE A,GALVESTON,TX,77550,3615822619,Package
COST PLUS WORLD MARKET #242,1450 TEXAS AVENUE SOUTH,COLLEGE STATION,TX,778420000,764141979,Package
METRO MARKET,645 E 11TH ST SUITE B,HOUSTON,TX,77008,7138022514,Package
SPECS #157,1453 COIT ROAD,PLANO,TX,750740000,932101972,Package
COOTER BROWN'S,202 CLEVELAND,WINFIELD,TX,75493,0,Package
TWIN LIQOURS #68,12955 HWY 281 NORTH,SAN ANTONIO,TX,78216,5122200700,Package
SPECS #095,1013 W UNIVERSITY AVE,GEORGETOWN,TX,78628,868669512,Package
CHEERS,2140 JUSTIN RD,HIGHLAND VILLAGE,TX,76210,317044972,Package
THE BREW HOUSE,5022 PINEMONT DRIVE,HOUSTON,TX,77092,8328049079,Package
BOB'S MEAT AND GROCERY,509 21ST,GALVESTON,TX,77550,4097622898,Package
RANDOLPH HOME AND GARDEN,BLDG 1038 3RD ST WEST,SAN ANTONIO,TX,78148,2105566881,Package
SPEC'S LIQUOR #14,7314 LOUETTA ROAD STE A1,SPRING,TX,77379,2813701986,Package
SPEC'S LIQUOR #28,1614 LOUETTA ROAD,SPRING,TX,77388,7135268787,Package
COST PLUS WORLD MARKET #257,1327 GEORGE DIETER C,EL PASO,TX,79936,633651915,Package
BUCKEYE LIQUOR #8,7610 GREENVILLE,DALLAS,TX,752310000,765687214,Package
242 EXPRESS MARKET,18991 HWY 242,CONROE,TX,77302,2816895766,Package
TEXAS BEVERAGES,1210 N LOOP 340,WACO,TX,76705,732606254,Package
TIME MART #22,21775 FM 1314,PORTER,TX,77365,8322876229,Package
HICKORY HOLLOW RESTAURANT,18535 FM 1488 STE 250,MAGNOLIA,TX,77354,2813567885,Package
SPIRITS LIQUOR CO.,2825 CANTON,DALLAS,TX,752260000,0,Package
SIGELS LIQUOR #03,506 S RIVERFRONT BLVD,DALLAS,TX,74502,350127214,Package
ESKIMO HUT,1609 N NAVARRO ST,VICTORIA,TX,77901,3615800488,Package
FAIRBANKS LIQUOR SELECTIO,12622 TELGE RD,CYPRESS,TX,77429,2812568858,Package
TWIN LIQUORS #07,1000 E 41 ST #810,AUSTIN,TX,787510000,442839512,Package
FRENCH QUARTER BAR & GRILL,500 SOUTH ST.  STE 1000,VIDOR,TX,77662,8884335727,Package
THE OLD CROW,1911 GREENVILLE AVE,DALLAS,TX,75206,828276214,Package
GOODY GOODY #18,4740 SW LOOP 820,FORT WORTH,TX,761090000,0,Package
PRILINA'S SHOP AND SAVE,"""1005 DONALDSON AVE """,SAN ANTONIO,TX,782285102,555121999,Package
BULVERDE BEVERAGE,2838 N LOOP 1604E,SAN ANTONIO,TX,78232,2103361352,Package
JAMAICA BEACH FOOD STORE,16603 SAN LUIS PASS ROAD,GALVESTON,TX,775540000,4097371142,Package
H.E.B. PANTRY #257,100 TRULY PLAZA,CLEVELAND,TX,773274889,2815920466,Package
I-10 ICE HOUSE,9518 CONSOLE,SAN ANTONIO,TX,78229,2106145200,Package
SARTINS WEST,1990 I-10 SOUTH,BEAUMONT,TX,77706,4098613474,Package
WACO BAR & SUPPLY,225 LA SALLE,WACO,TX,76706,754668254,Package
PIG LIQUORS,712 S SAINT MARYS STREET,SAN ANTONIO,TX,78205,2102266465,Package
GABRIELS OUTLET STORE #58 D58,4200 SOUTH IH 35 STE 100,SAN MARCOS,TX,786660000,754025512,Package
W.F.M. BEV. CORP. # 10134,4004 BELLAIRE,HOUSTON,TX,77025,7136674090,Package
SPEC'S WINES & SPIR #110,1723 LOOP 1604 NE STE.104,SAN ANTONIO,TX,78232,2102253044,Package
WURZBACH ICE HOUSE,10141 WURZBACH RD,SAN ANTONIO,TX,78230,2108772100,Package
TWIN LIQUORS #67,1200 LOWES BLVD,KILLEEN,TX,76542,442839512,Package
TWIN LIQUORS #50,5401 SOUTH FM 1626,KYLE,TX,78640,268570512,Package
FIESTA MART #18,8130 KIRBY,HOUSTON,TX,77054,7136669260,Package
MEDICINAL PURPOSES,712 7TH STREET,GALVESTON,TX,77550,8884335747,Package
TWIN LIQUORS #68,12955 HWY 281 NORTH,SAN ANTONIO,TX,78221,0,Package
COASTAL - MKT. PROMOTIONS,6702 BROADWAY,GALVESTON,TX,775500000,4097414400,Package
LOWES # 74 FOX PLAZA,5514 ALAMEDA,EL PASO,TX,79905,778474915,Package
HALLS WINE & SPIRITS,4200 GLADE ROAD,COLLEYVILLE,TX,760340000,267680817,Package
GOODY GOODY #3,7124 GREENVILLE AVE,DALLAS,TX,752310000,765687214,Package
SPEC'S LIQUOR #59,5818 MEMORIAL,HOUSTON,TX,77007,7138614161,Package
VIC'S LIQUOR,1500 RESEARCH FOREST 170,SPRING,TX,773817300,8322941446,Package
DON'S & BEN'S #40,1235 AUSTIN HWY STE 102,SAN ANTONIO,TX,78209,2108244586,Package
LOWE'S #113,702 HENDERSON,PALACIOS,TX,774650000,3619722534,Package
SPECS #094,655 SUNLAND PARK,EL PASO,TX,79912,0,Package
LOTSA LIQOURS,15136 SAN PEDRO AVE.,SAN ANTONIO,TX,78232,2108226101,Package
H.E.B. PANTRY #233,1616 N. ALABAMA,WHARTON,TX,774880000,9792822773,Package
WORLD MARKET #333,5229 ALPHA ROAD,DALLAS,TX,75240,788259972,Package
SPEC'S LIQUOR #24,1011 WESTHEIMER,HOUSTON,TX,77006,7138694361,Package
GOODY GOODY #12 HIGHLAND,1950 FM 407,HIGHLAND VILLAGE,TX,750770000,0,Package
SPEC'S WINE SPIRITS #101,5720 NEW TERRITORY BLVD,SUGAR LAND,TX,77479,2814910811,Package
NRH BEER & WINE,6705 MID CITIES BLVD,NORTH RICHLAND HILLS,TX,76182,656454817,Package
SPEC'S LIQUOR #35,2711 61ST ST,GALVESTON,TX,77550,4097446327,Package
PEARLAND EXPRESS,1802 PEARLAND PKWY,PEARLAND,TX,77581,8884335727,Package
WORLD MARKET #064,1201 N CENTRAL EXPWY,PLANO,TX,750750000,0,Package
SPEC'S #37 COLLEGE STATION,1729 S. TEXAS AVE,COLLEGE STATION,TX,77840,555121999,Package
SPIN N MARKET #07,308 N. WINFREE,DAYTON,TX,775350000,9362587187,Package
GULSHAN HANDI STOP #29,12340 W AIRPORT BLVD,STAFFORD,TX,77477,2815643198,Package
WHIP IN (AUSTIN),1950 IH 35 SOUTH,AUSTIN,TX,787040000,443533512,Package
GOODY GOODY #17  FW,6393 CAMP BOWIE BLVD,FORT WORTH,TX,761160000,765684214,Package
SPEC'S LIQUOR #49,12901 QUEENSBURY,HOUSTON,TX,77079,7134675515,Package
RICHARD'S LIQUOR #84,5630 RICHMOND AVENUE,HOUSTON,TX,77057,7137833344,Package
EXPRESSWAY FOOD MART #2,4201 N FRAZIER STREET,CONROE,TX,77303,9368563970,Package
METZLER'S,1117 E UNIVERSITY,DENTON,TX,76209,383198940,Package
SPECS #066,3550 S GENERAL BRUCE DR,TEMPLE,TX,765040000,771151254,Package
SPIRITS DEPOT,1551 SOUTH BECKLEY ROAD,GLENN HEIGHTS,TX,75154,642266214,Package
RED'S LIQUOR,804 W BROADWAY,BIG SANDY,TX,75755,636446903,Package
SPEC'S #93,280 HWY 290 W  STE F,BRENHAM,TX,77833,555121999,Package
NAVY EX.(C.C) (MIL),651 LEXINGTON N.A.S.,CORPUS CHRISTI,TX,78419,961216361,Package
THE CEDARS SOCIAL,1326 S LAMAR ST,DALLAS,TX,75215,555121999,Package
TWIN LIQUORS #12,900 E. PECAN ST.,PFLUGERVILLE,TX,78660,252970512,Package
SPECS #074,1305 SIDNEY BAKER F,KERRVILLE,TX,78028,0,Package
FB DALLAS PARTNERS,13755 DIPLOMAT DR STE 100,FARMERS BRANCH,TX,75234,943026972,Package
KINGS LIQUOR #3,2810 W BERRY STREET,FORT WORTH,TX,761092302,923373817,Package
PREVOS  JOSEPH,SALES REP,REGION I,TX,00000,7138694361,Package
TOULOUSE PETIT KITCHEN & LOUNGE,601 QUEEN ANNE AVE N,SEATTLE,WA,98109,2062278635,Package
CRAVING CAJUN GRILL,2915 COLBY AVE,EVERETT,WA,98201,4253742983,Package
NEW ORLEANS CREOLE REST,114 1ST AVE S,SEATTLE,WA,98104,2066222563,Package
LE BON TEMPS ROULER,4332 LEARY WAY NW,SEATTLE,WA,98107,2063517450,Package
LUCKY 8'S,1407 14TH AVE,SEATTLE,WA,98122,2063250888,Package
BANDITS,159 DENNY WAY STE 105,SEATTLE,WA,98109,2064435447,Package
TOTAL WINE & MORE #1401,699 120TH AVE NE #B,BELLEVUE,WA,980053009,9545512131,Package
TOTAL WINE & MORE #1403,9980 N NEWPORT HWY,SPOKANE,WA,99218,5094661644,Package
85TH MARKET,656 NW 85TH ST,SEATTLE,WA,98117,2065529545,Package
NORM'S MARKET,10027 LUNDEEN PKWY,LAKE STEVENS,WA,98258,4253344646,Package
TOTAL WINE & MORE #1405,2701 184TH ST SW STE 108,LYNNWOOD,WA,98037,9999999999,Package
99 BOTTLES,35002 PACIFIC HWY A102,FEDERAL WAY,WA,98003,2538382558,Package
BOTTLES,3319 N ARGONNE RD,SPOKANE,WA,99212,5094434027,Package
HIGHWAY 99,1414 ALASKAN WAY,SEATTLE,WA,98101,2063822171,Package
FULL THROTTLE,5909 AIRPORT WAY S,SEATTLE,WA,98108,2067632079,Package
LAST CHANCE CHILI,5606 1ST AVENUE S,SEATTLE,WA,98108,9999999999,Package
TRIPLE DOOR,1401 3RD AVE,SEATTLE,WA,98101,2068384433,Package
BEER JUNCTION  THE,4511 CALIFORNIA AVE SW,SEATTLE,WA,98116,2062346921,Package
TOTAL WINE & MORE #1402,300 ANDOVER PARK W,TUKWILA,WA,98188,2065756280,Package
ROANOKE PARK PLACE TAVERN,2409 10TH AVE E,SEATTLE,WA,98102,2063245882,Package
PLAZA SUPER JET,106 S OKANOGAN AVE,WENATCHEE,WA,98801,5096625410,Package
BEVM0! #140,10700 5TH AVE NE,SEATTLE,WA,98125,2063670911,Package
HIGHLINDER PUB & GRILL,3909 18TH AVE W,SEATTLE,WA,98119,2062833366,Package
MIX,6006 12TH AVE S,SEATTLE,WA,98108,2067670280,Package
COST PLUS #157 WB9,13990 NE MILL PLACE,WOODINVILLE,WA,98072,4254243214,Package
BIG STAR BEER MKT,1117-1119 N NORTHGATE WAY,SEATTLE,WA,98122,2067290797,Package
COST PLUS #072 WB9,2103 WESTERN AVE,SEATTLE,WA,98121,2064431055,Package
COST PLUS #197 WB9,7214 170TH AVE #A-1,REDMOND,WA,98052,4258838863,Package
COST PLUS,18205 ALDERWOOD MALL BLVD,LYNNWOOD,WA,98037,4257748892,Package
BEVMO! #157,2180 148TH AVE NE,REDMOND,WA,98052,9256096083,Package
BEVMO! #146,17197 SOUTHCENTER PKWY,TUKWILA,WA,98188,9256096000,Package
HUCKLEBERRYS NATURAL MKT,926 S MONROE,SPOKANE,WA,99204,5096241349,Package
CAPCO BEVERAGES,4100 SW ALASKA ST STE B..,SEATTLE,WA,98116,2069236720,Package
FIVE SPOT,1502 QUEEN AVE N,SEATTLE,WA,98109,2062857768,Package
WHISTLE STOP,5626 134TH PLACE SE,EVERETT,WA,98208,4253376533,Package
ALPINE LIQUOR (OREGON),905 N MAIN ST,OREGON,WI,53575,6082910490,Package
VIKING EXPRESS MARKET,935 8TH STREET,BARABOO,WI,53913,6083567373,Package
WAL-MART #2532,2785 MILWAUKEE ROAD,BELOIT,WI,53511,6083620057,Package
LOGLI,1500 CRESTON ROAD,JANESVILLE,WI,53545,6087555805,Package
WOODMAN'S #16,3817 MILWAUKEE STREET,MADISON,WI,53714,6082440818,Package
PIERCE'S WEST BARABOO,615 HWY 136,BARABOO,WI,53913,6083566671,Package
BAYOU  THE,117 S BUTLER ST,MADISON,WI,53704,6082949404,Package
WOODMAN'S #31,1099 S GRAND AVE,SUN PRAIRIE,WI,53590,6088251511,Package
HY-VEE #1392 (WEST),675 S WHITNEY WAY,MADISON,WI,53711,6082776735,Package
VIKING VILLAGE LIQUOR,1625 EAST MAIN ST,REEDSBURG,WI,53959,6085246108,Package
HY-VEE #1391 (EAST),3801 E WASHINGTON AVE,MADISON,WI,53704,16082444696,Package
WAL-MART #1305,3800 DEERFIELD DRIVE,JANESVILLE,WI,53545,6087547800,Package
VINTAGE LIQUORS,1527 STATE HWY 14,BLACK EARTH,WI,53515,6087672767,Package
PIGGLY WIGGLY 106,621 HWY 51 N,POYNETTE,WI,53955,6086352647,Package
